Name	Address 1	Address 2	City	State	Zip	County	Contact Phone	Hours of Operation	Website	Facebook	Free Range?	Vegetarian/Vegan?	Organic?	Handicap Accessible?	Family-friendly?	Senior Discounts?	Military Discounts?	Family-owned?	Category 1	Category 2	Category 3	Category 4	Category 5	Category 6	Offering 1	Offering 2	Offering 3	Offering 4	Offering 5	Offering 6	Banner Photo	Photo 1	Photo 2	Photo 3	Photo 4	Photo 5	Photo 6
Niagara Falls City Market	Pine Ave. Market Square	between 18th & 19th streets	Niagara Falls	NY	14301	Niagara 	716-754-0798	Mon/Wed/Fri 9am-5pm year round	N/A	https://www.facebook.com/Niagara-Falls-City-Market-1490282974380236/		Yes		Yes	yes				Farmers Market						specialty fruits	specialty vegetables	specialty meats	apples	potatoes	greens	https://i.imgur.com/zB5Ycsd.jpg	https://i.imgur.com/taAE4VY.jpg	https://i.imgur.com/9iZfreo.jpg	https://i.imgur.com/ULzjXsR.jpg	https://i.imgur.com/VWIOZbW.jpg	https://i.imgur.com/Xfz24gN.jpg	https://i.imgur.com/9NnrVpH.jpg
North Tonawanda City Farmers' Market	Robinson Road at Payne Ave.		North Tonawanda	NY	14120	Niagara 	716-695-8541	Tue/Thu/Sat 7am-1pm year round	http://www.northtonawanda.org/Departments/City%20Market.htm			Yes			Yes				Farmers Market						specialty fruits	specialty vegetables	specialty meats	prepared food	flowers	skincare/home products	https://i.imgur.com/kRApM1t.jpg	https://i.imgur.com/wlHP6rG.jpg	https://i.imgur.com/ztd8r9l.jpg				
McCollum Orchards	248 N. Adam Street		Lockport	NY	14094	Niagara 	716-730-0703	Call for hours/appointment	http://www.oldfarmnewlife.com/	https://www.facebook.com/McCollum-Orchards-207955509225478/		Yes			Yes				CSA						specialty vegetables	apples	garlic	greens	herbs	tomatoes	http://1.bp.blogspot.com/-8uFscm6SO5I/UzRb2-aXF0I/AAAAAAAABtE/-CXnJ1OHHR4/s1208/banner%2Bfacebook%2B3-14.JPG	http://1.bp.blogspot.com/-VTtdV6aKKWA/VKcVqy_A_9I/AAAAAAAAAjw/EAsM8iEu71E/s1600/20140623_143144.jpg	https://3.bp.blogspot.com/-Hnr74IXd4xs/VsiCWulCKvI/AAAAAAAAB9k/fYyhxwoKlkk/s1600/CSA%2Bshares.JPG				
Season of Alpacas	5912 Wynkoop Road		Lockport	NY	14094	Niagara 	716-433-1198		http://www.seasonofalpacas.com/						Yes				Gift Shop & Specialty Products						fiber	specialty shops					http://www.seasonofalpacas.com/bios/regan/Regan1.jpg						
LaRose's Farm Market & Garden Center	5759 Ridge Road		Lockport	NY	14094	Niagara	716-433-9352	Open daily 9-6 seasonally	http://larosegardencenter.com/	https://www.facebook.com/LaRoses-Farm-Market-and-Garden-Center-822243431186419/					Yes				Farm Market	Nursery/Plants					flowers	pumpkins/gourds	squash	strawberries	specialty vegetables	specialty fruits	http://larosegardencenter.com/images/Thumbnails/tn_20170916_103508.jpg						
Boka Farms Inc.	6021 Campbell Blvd.		Lockport	NY	14094	Niagara	716-625-9664	Open during spring and summer	N/A	https://www.facebook.com/Boka-Farms-1413002325647734/		Yes			Yes				Farm Market	Nursery/Plants					flowers	nursery plants	specialty shops	pumpkins/gourds			https://scontent-lga3-1.xx.fbcdn.net/v/t1.0-9/10420105_1413008402313793_8449347522477773296_n.jpg?oh=700b2d312e544927ef7fe1fe28ae1080&oe=5AAFA954	https://scontent-lga3-1.xx.fbcdn.net/v/t1.0-9/13237849_1760178134263483_4164878354419803873_n.jpg?oh=a0000eb9b439e10f771bd8369509e76b&oe=5A622E77			https://scontent-lga3-1.xx.fbcdn.net/v/t1.0-9/418267_383416511687820_1327713066_n.jpg?oh=4bfb1e392170983530d016e5a225a192&oe=5AACADA2		
Eveningside Vineyards	4794 Lower Mountain Road		Lockport	NY	14094	Niagara	716-867-2415	May-Oct. daily 12-6 / Nov.-Apr. Sat.&Sun. 12-6	http://eveningside.com/	https://www.facebook.com/EveningsideWinery/		Yes		Yes	Yes			Yes	Winery	Weddings & Special Events	Gift Shop & Specialty Products				wine	specialty shops					https://scontent-ort2-1.xx.fbcdn.net/v/t31.0-8/13308581_1271143019581827_2868927755745669412_o.jpg?oh=8f2ffa2cb802d5f19f913f5b17ce1f3c&oe=5ABA851B	https://scontent-lga3-1.xx.fbcdn.net/v/t1.0-9/603022_565483603481109_686740250_n.jpg?oh=516d6b87bea3be9285a3cc49f9254c47&oe=5A9A1BBC	https://scontent-lga3-1.xx.fbcdn.net/v/t31.0-8/19055543_1662432080452917_8431263833919080295_o.jpg?oh=2856f08bdd403b66fd89b5ad58b485a4&oe=5A9F94A4				
Newroyal Orchards	7577 Slayton Settlement Road		Gasport	NY	14067	Niagara	716-772-2469	Call for hours/appointment	http://newroyalorchards.com/			Yes			Yes			Yes	Farm Market						apples	pears					https://scontent-lga3-1.xx.fbcdn.net/v/t1.0-9/20729640_10159093200305099_5564682601878032741_n.jpg?oh=d290b442824bcb27c8e8b9399c3204d9&oe=5AA9753C						
Blackman Homestead Farm	4472 Thrall Road		Lockport	NY	14094	Niagara	716-434-7116	Open daily 9-6 seasonally	https://blackmanhomesteadfarm.com/	https://www.facebook.com/blackmanhomesteadfarm/		Yes			Yes			Yes	Farm Market	U-Pick	Gift Shop & Specialty Products				apples	cider/juice	grapes	petting zoo	specialty shops		https://i1.wp.com/blackmanhomesteadfarm.com/wp-content/uploads/2016/06/logo6.jpg?fit=220%2C148&ssl=1	https://i1.wp.com/blackmanhomesteadfarm.com/wp-content/uploads/2017/03/product-photos-079-1.jpg?resize=1180%2C435&ssl=1	https://i2.wp.com/blackmanhomesteadfarm.com/wp-content/uploads/2017/04/cider-227.jpg?resize=1180%2C435&ssl=1				
Niagara Landing Wine Cellars	4434 Van Dusen Road		Lockport	NY	14094	Niagara	716-433-8405	Monday-Sat. 10am-6pm, Sundays 12pm-6pm	http://niagaralanding.com/	https://www.facebook.com/niagara.landing.wine.cellars/		Yes		Yes	Yes		Yes	Yes	Winery	Gift Shop & Specialty Products					wine	specialty shops					http://niagaralanding.com/wp-content/uploads/misty-niagara-awards-472x475.jpg	http://niagaralanding.com/wp-content/uploads/red-grapes-1140x300.jpg	http://niagaralanding.com/wp-content/uploads/misty-niagara-awards-472x475.jpg				
Librock Beef Farms	5288 Gasport Road		Gasport	NY	14067		716-772-7723	Call ahead	http://www.librockbeef.com/	https://www.facebook.com/Librock-Beef-356668141060191/		No			Yes			Yes	Meat Market						beef						https://scontent-ort2-1.xx.fbcdn.net/v/t1.0-9/10698444_775165209210480_226639716924015227_n.jpg?oh=9fe702c026db0a1e9677dd8f44abfe9c&oe=5AF47A29						
Hartland Abattoir	7625 Ridge Road		Gasport	NY	14067		716-772-7352	Monday-Friday 8am-5pm, Sat. 8am-12pm, Sunday closed	http://www.hartlandabattoir.com/			No			Yes			Yes	Meat Market						beef	pork	poultry				https://scontent-lga3-1.xx.fbcdn.net/v/t1.0-9/73127_151333211733979_821502494_n.jpg?oh=779b3b0cc73629e16dc8bc007b87face&oe=5A71C732						
Heimiller Greenhouses	3038 Ewings Road		Newfane	NY	14108	Niagara	716-778-0026	Monday-Sat. 9am-5pm, Sunday 10am-4pm seasonally	N/A	https://www.facebook.com/heimiller.greenhouses/					Yes		Yes	Yes	Nursery/Plants	Gift Shop & Specialty Products					flowers	nursery plants	specialty shops				https://scontent-lga3-1.xx.fbcdn.net/v/t1.0-9/18486059_10154374701851875_5766938790608759493_n.jpg?oh=78b60ada7f90cc0b60a27ec9aa5c673a&oe=5A7785C7						
Hahns Ponds	3779 Lower Mountain Road		Sanborn	NY	14132	Niagara	716-731-5531	April to July. Mon. – Fri. 10 to 6, Sat. 9 to 5, Sun. 10 to 5. August to September: Mon. – Sat. 10 to 5, Sun. Closed. Fall Hours: October. Sat. 10 to 5.	http://hahnsponds.com/	https://www.facebook.com/hahnsponds/					Yes			Yes	Gift Shop & Specialty Products						flowers	nursery plants	specialty shops				https://scontent-lga3-1.xx.fbcdn.net/v/t31.0-8/18671684_1489734561048014_4824914413731849935_o.jpg?oh=9e7a2611d3f75efe43a99f4cfa860a43&oe=5AD19501	https://scontent-lga3-1.xx.fbcdn.net/v/t1.0-9/12042711_1109033545784786_5531704484071497499_n.jpg?oh=50fb448af9c1a5db73a9cb53aa74211a&oe=5A8D4F0A					
Erways Christmas Tree Adventure	4202 Willow Road		Wilson	NY	14172		716-751-9602	Mon-Fri. 12-8pm. Sat. & Sun. 8am-8pm.	http://www.erwayschristmastreeadventure.com/						Yes			Yes	Christmas Tree Farm	Gift Shop & Specialty Products					christmas trees	petting zoo	specialty shops				https://scontent-ort2-1.xx.fbcdn.net/v/t1.0-9/24176815_1426789874104971_6431660762724454551_n.jpg?oh=118dad24e9d1ae7f17136db027f02113&oe=5AE6D229	https://scontent-lga3-1.xx.fbcdn.net/v/t1.0-9/12376051_845559622228002_6118755549083793411_n.jpg?oh=c695fb233cb1a4afdb1fd2895b8762a0&oe=5AAC7190	http://www.erwayschristmastreeadventure.com/trees/wagon2.jpg	 https://scontent-ort2-1.xx.fbcdn.net/v/t1.0-9/12227715_826729884110976_8959464491409300065_n.jpg?oh=c0dd1955659b70f165d865bd4817fae5&oe=5AE7ADBC	https://scontent-ort2-1.xx.fbcdn.net/v/t1.0-9/10804_640872422696724_7843058996928717711_n.jpg?oh=c7a75dbc91bc4d910dca3179e3d69baf&oe=5AB24236	https://scontent-ort2-1.xx.fbcdn.net/v/t1.0-9/10390975_653371871446779_6650752368042294608_n.jpg?oh=2a8974f076ac6dc836c40b9ad4c1240b&oe=5AECE439	
Hiller's Sweet Corn Farm Market	2043 Lockport Olcott Rd		Burt	NY	14028		716-946-5308	Daily 9:30-6pm		https://www.facebook.com/hillerssweetcorn/		Yes			Yes			Yes	Farm Market						corn	apples	peaches/apricots	squash	specialty vegetables	specialty fruits	https://scontent-lga3-1.xx.fbcdn.net/v/t1.0-9/22730448_1450725981708587_382797155286846427_n.jpg?oh=fbd00069a777cb2ee0c50c3fa3f736fd&oe=5AAADFC2	https://scontent-lga3-1.xx.fbcdn.net/v/t1.0-9/21557678_1417267115054474_6446294694995774363_n.jpg?oh=98a369b9a79b53ce9745cde27ee18be1&oe=5AAEB605	https://scontent-lga3-1.xx.fbcdn.net/v/t1.0-0/c78.0.200.200/p200x200/15356662_1145468638900991_8592118398877488501_n.jpg?oh=67746965b3b6ded540cb0c644a88511c&oe=5A690DED				
Becker Farms & Vizcarra Vineyards	3724 Quaker Road		Gasport	NY	14067		716-772-2211	Sun.-Thur. 11am-6pm. Friday & Sat. 10am-9pm	www.beckerfarms.com	https://www.facebook.com/Beckerfarms01/		Yes		Yes	Yes			Yes	Winery	Brewery/Cidery	Seasonal Activities	Weddings & Special Events	U-Pick	CSA	wine	beer	specialty shops	bakery	music/entertainment	venue rental	https://scontent-lga3-1.xx.fbcdn.net/v/t1.0-9/11230914_10153342270564170_8505291845533937801_n.jpg?oh=4c92145c2c8d27beccacf7a38734ce9c&oe=5AB01F55	https://scontent-lga3-1.xx.fbcdn.net/v/t1.0-9/21752361_10155917789774170_7636225389482173216_n.jpg?oh=4203dba94dc8cbe8d90075410789d04c&oe=5A761C5D	https://scontent-lga3-1.xx.fbcdn.net/v/t1.0-9/19113598_10155603053449170_9099140015051874184_n.jpg?oh=124570e82497ea9444611c65fa023fa7&oe=5A80FB96	https://scontent-lga3-1.xx.fbcdn.net/v/t1.0-9/14330051_10154663577439170_1103564107835915291_n.jpg?oh=2ad0a5886d6bd4b7cde04c839ce96fa8&oe=5AADBBD1			
Hidden Valley Animal Adventure	2887 Royce Road		Varysburg	NY	14167		585-535-4100	Open daily May-Oct.	www.HiddenValleyAdventure.com	https://www.facebook.com/HiddenValleyAdventure/		No			Yes			Yes	Farm Tours/Farm Stay	Gift Shop & Specialty Products	Seasonal Activities				petting zoo	specialty shops					https://scontent-lga3-1.xx.fbcdn.net/v/t31.0-8/14680892_10154068568077613_1815367997021497706_o.jpg?oh=1c49d64f92463b6f20db73475669daac&oe=5A6735A5	https://scontent-lga3-1.xx.fbcdn.net/v/t1.0-1/p200x200/12801604_10153516420032613_7773454381509443257_n.jpg?oh=997a91986153b362b05e35320b5e9d20&oe=5A7F7F5C					
Wagner Farm & Market	2672 Lockport Road		Sanborn	NY	14132		716-731-4440	Open daily 9-6pm	http://wagnersfarmmarket.com/	https://www.facebook.com/Wagners-Farm-Market-165324213513457/		Yes			Yes			Yes	Farm Market	Gift Shop & Specialty Products	Baked Goods				apples	pumpkins/gourds	specialty shops	cider/juice	prepared food	specialty fruits	https://scontent-ort2-1.xx.fbcdn.net/v/t31.0-8/15289135_1237603789618822_7565470833565957675_o.jpg?oh=49f6cab4f16d2c6cd13150e7c49d08a7&oe=5AEBE4B3	https://scontent-ort2-1.xx.fbcdn.net/v/t31.0-8/25439039_1685306401515223_6054035263231967808_o.jpg?oh=1e86b07cdfd64dcbd5968eb7ba6ed703&oe=5AEC2BDF	https://scontent-ort2-1.xx.fbcdn.net/v/t1.0-9/13343124_1088954774483725_114594067623056027_n.jpg?oh=e398162992b4acd2347040d5cdf721a6&oe=5AFC18BA				
First Light Farm & Creamery			East Bethany	NY	14054		585-297-5341	Open daily	http://www.firstlightfarmer.com/	https://www.facebook.com/FirstLightFC/		No		Yes	Yes			Yes	Dairy Products	Gift Shop & Specialty Products	Weddings & Special Events				cheese	specialty shops	venue rental				https://scontent-ort2-1.xx.fbcdn.net/v/t31.0-8/16113098_1202555186518288_7425228503619141175_o.jpg?oh=04e52bc5bc028b2f4115a690db2fdbdb&oe=5ABA18A8	https://scontent-lga3-1.xx.fbcdn.net/v/t1.0-9/15977797_1202556343184839_8051006855920604147_n.jpg?oh=fba6e70e99ba2ca3b035f69c68541d82&oe=5A768E53					
Clinton Bailey Farmers Market	1443-1517 Clinton Street		Buffalo	NY	14206		716-822-2466	Open all year. 	www.clintonbaileymarket.com	https://www.facebook.com/ClintonBaileyFarmersMarket/		Yes		Yes	Yes				Farmers Market						specialty fruits	specialty vegetables	apples	potatoes	squash	corn	https://scontent-ort2-1.xx.fbcdn.net/v/t31.0-8/21458007_1648338275190835_5413256607264526347_o.jpg?oh=9fc46f6dae979e25e0d28f44a39e8a32&oe=5AFE2EF5	https://scontent-lga3-1.xx.fbcdn.net/v/t31.0-8/277947_470026116355396_1036233208_o.jpg?oh=c186c12a97456aa63be2202bc23eb556&oe=5A9D4215	https://scontent-lga3-1.xx.fbcdn.net/v/t31.0-8/477123_517954841562523_1963248178_o.jpg?oh=c6886edbd1a18874780a515bbbf09db2&oe=5A931568				
Harris Farm Market & Greenhouse	8475 Ridge Road		Gasport	NY	14067	Niagara	716-772-5229	Open May-October	N/A	https://www.facebook.com/HarrisFarmMarket/		Yes		Yes	Yes			Yes	Farm Market	Nursery/Plants					flowers	ice cream	nursery plants	specialty vegetables	specialty shops		https://scontent-ort2-1.xx.fbcdn.net/v/t1.0-9/21192756_1890612597620985_6748898748399487318_n.jpg?oh=468f5bf563fb779c44294ccb3b12a2f8&oe=5AEE3B35	https://scontent-ort2-1.xx.fbcdn.net/v/t1.0-9/19875397_1823962154286030_759093049156253714_n.jpg?oh=6859d1d4d687d55de9758127d84baea2&oe=5AE72945	 https://scontent-ort2-1.xx.fbcdn.net/v/t1.0-9/19225014_1798136440201935_1590996450628554343_n.jpg?oh=f8f6513c314951c2b7e93ac230eef596&oe=5AB16F9B	https://scontent-ort2-1.xx.fbcdn.net/v/t1.0-9/18157005_1735946376420942_7174529694416474211_n.jpg?oh=6fe7087a15128a1c27bec7ea36c436fb&oe=5AE79D0A	https://scontent-ort2-1.xx.fbcdn.net/v/t1.0-9/14484869_1483434761672106_5690025754803271219_n.jpg?oh=1ce430c1d3c306f79c5279b334f7cfa4&oe=5AF082B5		
Schwab Farm Market & Bakery	9035 Rochester Road		Gasport	NY	14067	Niagara	716-735-7570	Open year around 9am-6pm	www.schwabsfarm.com	https://www.facebook.com/Schwab-Farm-Market-124056294325609/		Yes			Yes			Yes	Farm Market	Baked Goods	Gift Shop & Specialty Products				apples	bakery	bread	desserts	strawberries	specialty shops	https://scontent-ort2-1.xx.fbcdn.net/v/t1.0-9/15871844_1339737952757431_3113889104543826064_n.jpg?oh=619faed7801e65732ea935a06f1da97b&oe=5AEDC5EF	https://scontent-ort2-1.xx.fbcdn.net/v/t31.0-8/412647_332405906823979_1487131953_o.jpg?oh=07083532d7cc236eb9c6ebe16175ee05&oe=5AB07408	 https://scontent-ort2-1.xx.fbcdn.net/v/t1.0-9/21731209_1606512519413305_9212260897708474833_n.jpg?oh=ccd3f2051a393eafa5e64c344a47cc16&oe=5ABA235C	 https://scontent-ort2-1.xx.fbcdn.net/v/t1.0-9/21740001_1606511279413429_7271877024907191844_n.jpg?oh=e61874b973fd8750d938dd02945dca7f&oe=5AFC13AF			
Goodman Farm Market	2227 Cayuga Drive. Ext.		Niagara Falls	NY	14304	Niagara	716-731-3231	Open year around 9am-6pm	N/A	https://www.facebook.com/Goodmans-Farm-Market-229405835767/		Yes		Yes	Yes			Yes	Farm Market	Baked Goods	Gift Shop & Specialty Products				pumpkins/gourds	apples	corn	cider/juice	specialty shops	desserts	https://scontent-lga3-1.xx.fbcdn.net/v/t31.0-8/466786_10150829646195768_2040733028_o.jpg?oh=25d393d2010339b14772cc31da8838ca&oe=5AA83A75	https://scontent-lga3-1.xx.fbcdn.net/v/t31.0-8/12031492_10153656541605768_7417604304446493963_o.jpg?oh=a95a53587e1de0d61ff1d054260b3124&oe=5A979618	https://scontent-lga3-1.xx.fbcdn.net/v/t31.0-8/12314328_10153725307070768_8368576337042097250_o.jpg?oh=cea19b5217291f68ef23ee6479e9d49f&oe=5AAD136A				
Singer Farm Naturals	6730 East Lake Rd.		Appleton	NY	14008		716-741-4549	Open daily 10-6	www.singerfarmnaturals.com	https://www.facebook.com/Singer-Farm-Naturals-118596078157592/		Yes	Yes	Yes	Yes			Yes	Farm Market	Gift Shop & Specialty Products					cherries	desserts	specialty shops	garlic	potatoes	skincare/home products	https://scontent-ort2-1.xx.fbcdn.net/v/t1.0-9/23376397_1934844163199432_7652305149358702029_n.jpg?oh=24eef7eb858db0aa417c810f6cb4bb72&oe=5AFDAF9E	https://scontent-ort2-1.xx.fbcdn.net/v/t1.0-9/22449632_1907931135890735_1192353243121585195_n.jpg?oh=0fcc59e514d8b1ad1e376c17416d45bf&oe=5AB8A4E2	 https://scontent-ort2-1.xx.fbcdn.net/v/t1.0-9/21192142_1866018523415330_4006459960869032602_n.jpg?oh=a09652d60337d4ea4ce0beae654defae&oe=5AEC74E8				
Wolf Maple Farms	9355 Chestnut Ridge Road		Middleport	NY	14105		716-735-9102	Call for times	N/A	https://www.facebook.com/WOLF-MAPLE-PRODUCTS-354928494623957/		Yes			Yes			Yes	Maple & Honey	Gift Shop & Specialty Products	Seasonal Activities				maple syrup	specialty shops					https://scontent-ort2-2.xx.fbcdn.net/v/t1.0-9/1917051_972227029560764_5774813520441459512_n.jpg?oh=9dc88958d9607b37859ee16b03ce44d3&oe=5AD09D13	https://scontent-ort2-2.xx.fbcdn.net/v/t1.0-9/10649930_972227629560704_832903092095446938_n.jpg?oh=f74d3a326a04d75c84617bd9dc0408e9&oe=5ABA363D					
Coulter Farms	3871 North Ridge Rd.		Lockport	NY	14094	Niagara	716-433-5335	June-Oct. 10:30am-6pm	www.coulterfarmsllc.com	https://www.facebook.com/coulterfarms/		Yes		Yes	Yes			Yes	Farm Market	U-Pick	Gift Shop & Specialty Products				strawberries	ice cream	prepared food	specialty vegetables	specialty fruits								
Greg's U-Pick Farm	9270 Lapp Road		Clarence Center	NY	14032		716-741-4239		www.gregsupick.com	https://www.facebook.com/Gregs-U-Pick-Farm-128140123880808/		Yes			Yes			Yes	U-Pick	CSA	Seasonal Activities				strawberries	tomatoes	squash	specialty fruits	pumpkins/gourds	blueberries	https://scontent-ort2-1.xx.fbcdn.net/v/t1.0-9/22046929_1814558278572309_8947610714970697030_n.jpg?oh=bb81db18c439be007e556f2ab8482839&oe=5AFACA88	https://scontent-ort2-1.xx.fbcdn.net/v/t1.0-9/22539798_1837930972901706_5683355065151935675_n.jpg?oh=0dae4f4ef49cb03270678d14e6d60b42&oe=5AFA8AEF	https://scontent-ort2-1.xx.fbcdn.net/v/t1.0-9/22688653_1837930969568373_6699887841948732816_n.jpg?oh=1dd4d37541f10d70752b030d7a33504b&oe=5AFE4C92	 https://scontent-ort2-1.xx.fbcdn.net/v/t1.0-9/21730870_1801127353248735_2788999082110095215_n.jpg?oh=8d1ccf4562ac790f36c5dee0629c3e24&oe=5AF4DB16	 https://scontent-ort2-1.xx.fbcdn.net/v/t1.0-9/21686362_1808414362520034_8937005652834667148_n.jpg?oh=1ab7c35d9d5210f88690909a8890267e&oe=5AB29057	https://scontent-ort2-1.xx.fbcdn.net/v/t1.0-9/21430469_1794033950624742_8369035300589283819_n.jpg?oh=e498c4fb8854f210046db0b112c5bbf0&oe=5AEF60FB	https://scontent-ort2-1.xx.fbcdn.net/v/t1.0-9/20525292_1750836961611108_5400502757249300180_n.jpg?oh=a6fbb1617cea59a832c58c0b60b5098e&oe=5AB4E547
Kindred Kreek Alpaca Farm	11932 Rapids Road		Akron	NY	14001		716-912-3333	Mon-Sat. 11am-5pm, Sunday 12-4pm	www.kindredkreekalpacas.com	https://www.facebook.com/KindredKreek/		No			Yes			Yes	Gift Shop & Specialty Products	Meat Market					fiber	specialty shops	specialty meats				https://scontent-ort2-1.xx.fbcdn.net/v/t31.0-8/465837_520203061359518_100771832_o.jpg?oh=382b1e0d0229a280ce76cf8e0e76571b&oe=5AEDFC5D	https://scontent-ort2-1.xx.fbcdn.net/v/t1.0-9/419411_434706353242523_1774710581_n.jpg?oh=6baa84496a3029b13faa39802d08791e&oe=5AB60D65	 https://scontent-ort2-1.xx.fbcdn.net/v/t1.0-9/12342605_969633039749849_8089069076338020030_n.jpg?oh=24a38db1e8611659e97d4a6cadb4a8d7&oe=5AE7DB57	 https://scontent-ort2-1.xx.fbcdn.net/v/t1.0-9/16266017_1281785531867930_6985167804217319975_n.jpg?oh=10ad8d565d9bc06dcb4115f1a22475b8&oe=5AFDA334			
Kelkenberg Farm of Clarence	9270 Wolcott Road		Clarence Center	NY	14032		716-741-4862	Hours change seasonally	www.kelkenbergfarm.com	https://www.facebook.com/Kelkenberg-Farm-of-Clarence-138581216184441/		Yes		Yes	Yes			Yes	Farm Market	Gift Shop & Specialty Products	Seasonal Activities	Baked Goods	Weddings & Special Events		pumpkins/gourds	desserts	petting zoo	venue rental	specialty shops		https://scontent-ort2-1.xx.fbcdn.net/v/t1.0-9/270653_445261972183029_426722482_n.jpg?oh=358e335c4b2b4a548da3b9e74dbd9092&oe=5AE75454	https://scontent-ort2-1.xx.fbcdn.net/v/t31.0-8/25300009_1901843789858166_6610820513278080275_o.jpg?oh=8dad31d0cd2e8557971e76a3fbe1b4f6&oe=5AB91D4C	 https://scontent-ort2-1.xx.fbcdn.net/v/t31.0-8/10005885_819179291457960_6304405689130338045_o.jpg?oh=499e9f4160ac884ad1d54a9248ebc2a2&oe=5ABC4B6F	https://scontent-ort2-1.xx.fbcdn.net/v/t31.0-8/1926001_724659020909988_2064964827_o.jpg?oh=ae339468f0b52c88a8288e1e786845bf&oe=5AB69744	 https://scontent-ort2-1.xx.fbcdn.net/v/t1.0-9/21740393_1783886944987185_1601627026039838847_n.jpg?oh=87be4c1fb1add16a16cdc7c044c567a4&oe=5AE90428	https://scontent-ort2-1.xx.fbcdn.net/v/t31.0-8/14241627_1293207030721848_8341011111035677637_o.jpg?oh=3c1623cdce9125aa6f2e09ba0a1ce816&oe=5ABCFAF0	https://scontent-ort2-1.xx.fbcdn.net/v/t31.0-8/12973599_1155539884488564_4130783911867968176_o.jpg?oh=298fa98b4da2e6ec8b943fa025fda241&oe=5AB27D9B
Akron Acres	12607 Stage Road		Akron	NY	14001		716-542-2314	Hours change seasonally	www.akronacres.com	https://www.facebook.com/akronacres/		Yes		Yes	Yes			Yes	Seasonal Activities	Weddings & Special Events	Gift Shop & Specialty Products	Christmas Tree Farm			venue rental	petting zoo	christmas trees	specialty shops			https://scontent-ort2-1.xx.fbcdn.net/v/t1.0-9/22310259_10155830526159529_4506655927584191320_n.jpg?oh=f2eb5f856341865b665b00e8b3beb4db&oe=5AFE0F16	https://scontent-lga3-1.xx.fbcdn.net/v/t1.0-9/22554842_10155875161844529_825767769358006847_n.jpg?oh=e32d33a7981467422b3406def33ef319&oe=5A684391	https://scontent-lga3-1.xx.fbcdn.net/v/t1.0-9/19400104_10155490062589529_2915679761948608107_n.jpg?oh=f1c8756ed1fc9715c0827fe7219e191a&oe=5A67A8CF		 https://scontent-ort2-1.xx.fbcdn.net/v/t31.0-8/21366696_10155746524884529_2595576226330331225_o.jpg?oh=2e256ff8460b5ddff6cb6940788168ff&oe=5AFC0CD3	https://scontent-ort2-1.xx.fbcdn.net/v/t1.0-9/14370089_10154575277299529_4365017497568918919_n.jpg?oh=24e8341a85de30c389da8bce7c8b72fd&oe=5AEC83A1	 https://scontent-ort2-1.xx.fbcdn.net/v/t1.0-9/13731511_10154386605414529_4624026776019628430_n.jpg?oh=f3a22fee3e045beaf73d4d837aa22b3b&oe=5AE4E403
810 Meadworks	113 West Center Street		Medina	NY	14103		585-542-9810	Closed Mon. & Tue. Wed. 12-6, Thur. 12-10pm, Fri. & Sat. 12pm-12am, Sun. 12-6	www.810meadworks.com	https://www.facebook.com/810meadwork/		Yes		No	Yes			Yes	Winery	Gift Shop & Specialty Products					mead	specialty shops					https://scontent-ort2-1.xx.fbcdn.net/v/t31.0-8/18620993_815299278625539_9758139520847089_o.jpg?oh=b4817518df0fda1a185aee256eb81f50&oe=5AB701F6	https://scontent-ort2-1.xx.fbcdn.net/v/t31.0-8/18192273_800058896816244_405323459058203912_o.jpg?oh=0ab93035ec9ac2893ed1f776778a58c5&oe=5AF6F8E7	https://scontent-ort2-1.xx.fbcdn.net/v/l/t31.0-8/17991506_795643347257799_4408816771953442515_o.jpg?oh=434035f44dde02bc83082cba8e4869e0&oe=5AB94414	https://scontent-ort2-1.xx.fbcdn.net/v/t31.0-8/17358864_776315102523957_1974411053037258184_o.jpg?oh=1b4f5c7ceea04cc117e852b4ab3ac705&oe=5AB800A8			
A gust of sun winery	4515 Baer Rd. 		Ransomville	NY	14131	Niagara	716-731-4878	Sun. - Fri. 12-6, Sat. 10-6	www.agustofsun.com	https://www.facebook.com/AGustOfSunWinery/		Yes		Yes	Yes			Yes	Winery	Gift Shop & Specialty Products	Weddings & Special Events				venue rental	wine	specialty shops				https://scontent-ort2-1.xx.fbcdn.net/v/t1.0-9/17264498_1518024188222445_524216292234128734_n.jpg?oh=1e001245bfa0fd1d6714e1d4f7a5cffd&oe=5AB78FCF	 https://scontent-ort2-1.xx.fbcdn.net/v/t1.0-9/25289175_1817220604969467_7688508785142016517_n.jpg?oh=621ef2e07d6b3e2e19a799f56b659841&oe=5AF6EBA3	 https://scontent-ort2-1.xx.fbcdn.net/v/t31.0-8/23511319_1784333261591535_7615664760572669682_o.jpg?oh=0d52431af9d7c5c4728191fed439fc6e&oe=5AF76F89				
Arrowhead Spring Vineyards	4746 Town Line Road		Cambria	NY	14094	Niagara	716-434-8030	Daily 12-6pm	www.arrowheadspringvineyards.com	https://www.facebook.com/arrowheadspringvineyards/		Yes		Yes	Yes		Yes	Yes	Winery	Gift Shop & Specialty Products	Weddings & Special Events				wine	venue rental	specialty shops				https://scontent-ort2-1.xx.fbcdn.net/v/t31.0-8/24273469_10159505382115408_5479381823684046498_o.jpg?oh=f39b590596dc5ab374112e83bc32c287&oe=5ABCE7F7	 https://scontent-ort2-1.xx.fbcdn.net/v/t31.0-8/22829821_10159354779430408_5757390702429425348_o.jpg?oh=1c431966e4708af75872a0c6c123ad81&oe=5AE9147D	 https://scontent-ort2-1.xx.fbcdn.net/v/t31.0-8/22181374_10159251620150408_269644922747492835_o.jpg?oh=1f9fddb7053171190cd897aedd13f20c&oe=5AEE5D1B	https://scontent-ort2-1.xx.fbcdn.net/v/t31.0-8/14612445_10157499938355408_8180467428326381506_o.jpg?oh=58f8da5673341deafb14383a9189d8c1&oe=5AB3527F	 https://scontent-ort2-1.xx.fbcdn.net/v/t31.0-8/14559946_10157386669300408_4305638560049678342_o.jpg?oh=7abd08c8fd9c0bcd501787cb56f453ce&oe=5AF1266F	https://scontent-ort2-1.xx.fbcdn.net/v/t31.0-8/13558932_10156980145940408_4049171837709311340_o.jpg?oh=9163eace69a727142a0bb0fb4ef1eda0&oe=5AEECA87	https://scontent-ort2-1.xx.fbcdn.net/v/t31.0-8/13243858_10156793653715408_9151418591005139295_o.jpg?oh=dcff5f3488b30b64bcdef38892e6d805&oe=5AE7AB48
Blackbird Cider Works	8503 Lower Lake Rd. 		Barker	NY	14012		716-795-3580	Mon.-Sat. 11-6, Sun. 12-6pm	www.blackbirdciders.com	https://www.facebook.com/blackbirdciderworks/		Yes	Yes	Yes	Yes			Yes	Brewery/Cidery	Gift Shop & Specialty Products					hard cider	specialty shops					https://scontent-ort2-2.xx.fbcdn.net/v/t1.0-9/11407061_729226447199260_3167265344611884430_n.jpg?oh=749439fa6fdfad96652c0e8a80fad9e8&oe=5AC8ED9F	https://scontent-ort2-2.xx.fbcdn.net/v/t1.0-9/10342465_789813704473867_2217845594465961349_n.jpg?oh=833ae424da11d8e5b9a9add593bbece4&oe=5A9037FA	https://scontent-ort2-2.xx.fbcdn.net/v/t1.0-9/1743686_625033070951932_1625019777456919005_n.jpg?oh=b26e23f660e49ebdd475d41d7c816934&oe=5A8B2FBF	https://scontent-ort2-2.xx.fbcdn.net/v/t1.0-9/10649821_587597134695526_4853023633845132727_n.jpg?oh=af73b02587cc0f91090dbbce179e029c&oe=5AD19B3B	https://scontent-ort2-2.xx.fbcdn.net/v/t1.0-9/10398667_577101879078385_721229572733481470_n.jpg?oh=853c46b12742df328d8430a5c5f954ba&oe=5ACE80D0		
Black Willow Winery	5565 W. Lake Road		Burt	NY	14028		716-439-1982	Mon.-Sat. 10-6; Sun. 12-6	www.blackwillowwinery.com	https://www.facebook.com/blackwillowwinery/		Yes		Yes	Yes		Yes	Yes	Winery	Gift Shop & Specialty Products	Weddings & Special Events				wine	mead	specialty shops	venue rental			https://scontent-ort2-1.xx.fbcdn.net/v/t1.0-9/20525509_1824327077584153_2068313120902165011_n.jpg?oh=5f4d3398fdaffe7069b95a5fd0d46622&oe=5AF07C51	http://newsite.blackwillowwinery.com/wp-content/uploads/2015/07/Wine-and-Chocolate-Pairing-1.jpg	 https://scontent-ort2-1.xx.fbcdn.net/v/t31.0-8/21414755_1872893662727494_7943343125856356068_o.jpg?oh=ba51d6a3b7dda28b8554c70d3509e720&oe=5AB8B3DA	https://scontent-ort2-1.xx.fbcdn.net/v/t31.0-8/21368648_1871956682821192_3082150585507222207_o.jpg?oh=cf17c32633c542fdfa45e058e4e29175&oe=5AF67C32	 https://scontent-ort2-1.xx.fbcdn.net/v/t31.0-8/21167777_1861112617238932_8489875609616598658_o.jpg?oh=736230d8035fa93d09ce9fb60df9c51b&oe=5AB3D90C		
Chateau Niagara Winery	2466 West Creek Road		Newfane	NY	14108		716-778-7888	Sun, Mon, Thur, Fri. 12-5; Sat. 12-6	http://www.chateauniagarawinery.com/	https://www.facebook.com/Chateau-Niagara-Winery-167455272347/		Yes		Yes	Yes			Yes	Winery	Gift Shop & Specialty Products	Weddings & Special Events				wine	specialty shops	venue rental				https://scontent-ort2-1.xx.fbcdn.net/v/t1.0-9/21616305_10155557798162348_4153718689649465888_n.jpg?oh=80cf15756c78841654d01db7d7aaecac&oe=5AEC20DE	https://scontent-lga3-1.xx.fbcdn.net/v/t1.0-9/15492587_10154711602017348_7186473550516701632_n.jpg?oh=5778777f058a2e6015028dbf44b50fa1&oe=5A7003D8	https://scontent-ort2-2.xx.fbcdn.net/v/t1.0-9/57976_437123067347_6819387_n.jpg?oh=a49515a4f84bca5add63a7f7c3334b50&oe=5A8914BD		 https://scontent-ort2-1.xx.fbcdn.net/v/t1.0-9/24129877_10155772456472348_4774672005400259810_n.jpg?oh=c331d5ceedf0eaf547a613ab9b3bf257&oe=5AEE914D	 https://scontent-ort2-1.xx.fbcdn.net/v/t1.0-9/14088685_10154348505027348_9147791259610454654_n.jpg?oh=43dbed3b2a161e8b5a07ae5aa855055d&oe=5AB8A297	
Flight of Five Winery	2 Pine Street	Old City Hall	Lockport	NY	14094		716-433-3360	Sun.-Thur. 12-6; Fri. & Sat. 12-7	http://www.flightoffivewinery.com/	https://www.facebook.com/Flight-of-Five-Winery-136305636560991/		Yes		No	Yes		Yes	Yes	Winery	Gift Shop & Specialty Products					wine	specialty shops					https://scontent-lga3-1.xx.fbcdn.net/v/t1.0-9/1238784_168388483352706_519055706_n.jpg?oh=2ecac850c01febff1addecd6fd149eea&oe=5AA7AFB2	 https://scontent-ort2-1.xx.fbcdn.net/v/t1.0-9/13920630_544025745788976_2802060929591073060_n.jpg?oh=dcf419b80b305c51bea961a471491cb1&oe=5AF8C34C	https://scontent-ort2-1.xx.fbcdn.net/v/t31.0-8/18055996_666715806853302_6518647872421481028_o.jpg?oh=5c4a225cd5b73344472012b73024885a&oe=5AFB00A2				
Freedom Run Winery	5138 Lower Mountain Rd.		Lockport	NY	14094		716-433-4136		http://www.freedomrunwinery.com/	https://www.facebook.com/FreedomRunWinery/		Yes		Yes	Yes		Yes	Yes	Winery	Gift Shop & Specialty Products	Weddings & Special Events				wine	specialty shops	venue rental				https://scontent-ort2-1.xx.fbcdn.net/v/t31.0-8/15800326_1271504259574011_1485388131214261756_o.jpg?oh=9b911ef9f236fb4bd6a1934ab255b974&oe=5AE9325E	 https://scontent-ort2-1.xx.fbcdn.net/v/t1.0-9/11693984_907367575987683_5697618018504767066_n.jpg?oh=32617bb77ddca9c17c3d98e1e1de0de8&oe=5AE63651	 https://scontent-ort2-1.xx.fbcdn.net/v/t1.0-9/14264175_1161084843949287_4273793084632237217_n.jpg?oh=6c92f3310f37a09e6a1f7dee32600d9f&oe=5AFB7186	 https://scontent-ort2-1.xx.fbcdn.net/v/t1.0-9/15873078_1274110485980055_5341225569820539175_n.png?oh=4f1e9d4915be426ec0e5ab25a925f11f&oe=5AFC9C83	https://scontent-ort2-1.xx.fbcdn.net/v/t31.0-8/12017737_950075535050220_5208173246817564793_o.jpg?oh=838ae3631f15f3ee9f22a4df58ba747b&oe=5AEBECE6	 https://scontent-ort2-1.xx.fbcdn.net/v/t1.0-9/11427208_902711916453249_5997640651026710716_n.jpg?oh=322b1d4a24e5031eeba07ea890b43d20&oe=5AF84B3A	 https://scontent-ort2-1.xx.fbcdn.net/v/t1.0-9/13533022_1098914813499624_2955050860805942398_n.jpg?oh=4c6c2ec19eccb8a20cef7d2edacf354e&oe=5AFBFE5B
Honeymoon Trail Winery	4120 Ridge Road		Cambria	NY	14094		716-438-3255	Tue.-Sat. 10-6; Sun. 12-6; Mon. 10-5	http://honeymoontrailwinery.com/	https://www.facebook.com/HoneymoonTrailWinery/		Yes		No	Yes			Yes	Winery	Gift Shop & Specialty Products	Weddings & Special Events				wine	specialty shops	venue rental				https://scontent-ort2-1.xx.fbcdn.net/v/t31.0-8/12473588_412372962292371_1650356932889129881_o.jpg?oh=33433093b46a1cf46f18aa47af6f7c99&oe=5AB1F3BD						
Lake Ontario Winery	1593 Hamlin Parma Town Line Rd.		Hilton	NY	14468		585-392-5296	Tues. & Sun. 11-6; Wed.-Sat. 11am-9pm	http://www.vinocorporation.com/Default.asp	https://www.facebook.com/LakeOntarioVineyards/		Yes		Yes	Yes			Yes	Winery	Gift Shop & Specialty Products	Weddings & Special Events				wine	specialty shops	venue rental				https://scontent-ort2-1.xx.fbcdn.net/v/t31.0-8/13340238_1376513985698032_2733918115210856770_o.jpg?oh=be859fc706294c781b1ba244aa67c7ba&oe=5AB82063	https://scontent-ort2-1.xx.fbcdn.net/v/t1.0-9/13620358_1438200122862751_1661127168233058586_n.jpg?oh=2d4271a109c3c9c8b833e88f1cb4361f&oe=5AE69A18					
Leonard Oakes Estate Winery	10609 Ridge Road		Medina	NY	14103		585-318-4418	Mon.-Fri. 11-6; Sat. 10-6; Sun. 12-6	http://oakeswinery.com/	https://www.facebook.com/oakeswinery/		Yes		Yes	Yes			Yes	Winery	Gift Shop & Specialty Products	Weddings & Special Events				wine	specialty shops	venue rental				https://scontent-ort2-1.xx.fbcdn.net/v/t31.0-8/16716188_10154135910425723_2886366789053445205_o.jpg?oh=82b46d32d0faae31048b142e46c4f929&oe=5AB86D51	https://scontent-ort2-1.xx.fbcdn.net/v/t31.0-8/14566350_10153777204680723_5794885231777313601_o.jpg?oh=195290bac9ef76925d5489d5024ec1a6&oe=5AB4421A	https://scontent-ort2-1.xx.fbcdn.net/v/t31.0-8/14434958_10153758809955723_4554818468934852490_o.jpg?oh=32f420b1168108f81aeb69c46e74a11e&oe=5AF77655	https://scontent-ort2-1.xx.fbcdn.net/v/t31.0-8/12823286_10153301505495723_6828888179526193101_o.jpg?oh=1dfc3e27d0b4fc2a6458017c3a629952&oe=5AEC4959	 https://scontent-ort2-1.xx.fbcdn.net/v/t31.0-8/464411_10150636955250723_1967529529_o.jpg?oh=03aef66e3c957359394a03dbb34cf649&oe=5ABC004F	https://scontent-ort2-1.xx.fbcdn.net/v/t1.0-9/180939_10150091804975723_1780569_n.jpg?oh=044e58a4b4867992d53068f53577f32d&oe=5AB88C09	https://scontent-ort2-1.xx.fbcdn.net/v/t31.0-8/14589958_10153777205765723_2084480760158108147_o.jpg?oh=d785e560c23e4eb06f541c4549412f1c&oe=5AEB4FCC
Long Cliff Winery & vineyards	3617 Lower Mountain Rd. 		Sanborn	NY	14132		716-731-3316	Sun. -Fri. 12-6; Sat. 10-6	www.longcliffwinery.com	https://www.facebook.com/LongCliffWinery/		Yes		Yes	Yes			Yes	Winery	Gift Shop & Specialty Products					wine	specialty shops					https://scontent-ort2-2.xx.fbcdn.net/v/t31.0-8/20776771_1402729876470832_8811834573293169326_o.jpg?oh=5203a557fad54b35f3b36720bf30a0fc&oe=5AC2BBCD	https://scontent-ort2-2.xx.fbcdn.net/v/t1.0-9/1377948_520478278029334_1151518491_n.jpg?oh=b5944c55954cee6c2a73f2b62d2d5044&oe=5AC0051B	https://scontent-ort2-2.xx.fbcdn.net/v/t1.0-9/224878_395796430497520_1831073755_n.jpg?oh=1adeb6c47e3ed9d7a02a1ba99610a7ca&oe=5ABDFB6F	https://scontent-ort2-2.xx.fbcdn.net/v/t1.0-9/391425_338186629591834_191053761_n.jpg?oh=e555c298c158ec827749fd5ef2e30de2&oe=5A91B98E	https://scontent-ort2-2.xx.fbcdn.net/v/t1.0-9/954673_496440000433162_641355980_n.jpg?oh=cf0c9c3733ee3a019746cc13dc21c2b2&oe=5ABA898D	 https://scontent-ort2-1.xx.fbcdn.net/v/t1.0-9/224878_395796430497520_1831073755_n.jpg?oh=174e5653aa46c0cfb4a63747dd1eaa2c&oe=5AE5886F	 https://scontent-ort2-1.xx.fbcdn.net/v/t1.0-9/13423798_1018102398266917_7593082023544401091_n.jpg?oh=3520ab0174b694602cd24ba850bb913e&oe=5AEEF9C5
Midnight Run Wine Cellars	3301 Braley Rd. 		Ransomville	NY	14131		716-751-6200	Mon&Tues. 3-6pm; Wed. & Thur. 1-6pm; Fri-Sun. 12-6	http://www.midnightrunwines.com/	https://www.facebook.com/midnightrunwinecellars/		Yes		Yes	Yes			Yes	Winery	Gift Shop & Specialty Products	Weddings & Special Events				wine	specialty shops	venue rental				https://scontent-ort2-1.xx.fbcdn.net/v/t1.0-9/224816_379821932075074_1753621517_n.jpg?oh=7cab3908bfe702468c2c563bdd55b7c8&oe=5AB9A0DD	https://scontent-lga3-1.xx.fbcdn.net/v/t31.0-8/14444860_1215602028497056_7749179254437322380_o.jpg?oh=894d8568494e79b1f2a7a17802e5d6f4&oe=5A6BD3B0					
Salamaca Estate Winery	2660 Hindsburg Rd. 		Albion	NY	14411		585-283-4094	M-W closed; Thur. 2-6pm; Friday-Sun. 12-6pm	N/A	https://www.facebook.com/Salamaca-Estate-Winery-246319468765488/		Yes		Yes	Yes				Winery	Gift Shop & Specialty Products					wine	specialty shops					https://scontent-ort2-1.xx.fbcdn.net/v/t31.0-8/10904553_835706389826790_1381321741610353991_o.jpg?oh=67681a5eb7c4697db74a283710bffb00&oe=5AF1C175	https://scontent-ort2-1.xx.fbcdn.net/v/t31.0-8/10443133_828742457189850_3468588774219544180_o.jpg?oh=fbb644daf9e6001bd35dcff19d576d7b&oe=5AE65ADA	 https://scontent-ort2-1.xx.fbcdn.net/v/t31.0-8/1966256_861733950557367_4135974917989655687_o.jpg?oh=f5d0256cd071642aa81d535023c7528e&oe=5AF3CAE4				
Schultze Vineyards & Winery	2090 Coomer Rd. 		Burt	NY	14028		716-778-8090	Mon-Sat. 10-6; Sun. 12-6	http://www.schulzewines.com/			Yes		Yes	Yes		Yes	Yes	Winery	Gift Shop & Specialty Products	Weddings & Special Events				wine	specialty shops	venue rental				https://scontent-ort2-2.xx.fbcdn.net/v/t31.0-8/459237_10150836440046632_663389473_o.jpg?oh=9fcbffaf8c88e852043f87b07c46f0a1&oe=5AD4F6B8	https://scontent-ort2-2.xx.fbcdn.net/v/t31.0-8/1398883_10152376938451632_509477397_o.jpg?oh=7ebfa2739fa807361ed1bfaf21452bac&oe=5A8BDC90	https://scontent-ort2-2.xx.fbcdn.net/v/t31.0-8/221444_10151343308331632_728931991_o.jpg?oh=871e0e5ad84dd6a5357fb8c3ebe9ccee&oe=5ACBC823	https://scontent-ort2-2.xx.fbcdn.net/v/t1.0-9/75156_10151479676691632_750745096_n.jpg?oh=b70d489b6ac25b0f83dd32cc9b7dd1cc&oe=5ABDD80A			
Spring Lake Winery	7373 Rochester Road		Lockport	NY	14094	Niagara	716-439-5253	open daily 12-6pm	www.springlakewinery.com			Yes		Yes	Yes			Yes	Winery	Gift Shop & Specialty Products	Weddings & Special Events				wine	specialty shops	venue rental				https://i.imgur.com/GlP58W2.jpg	https://scontent-ort2-1.xx.fbcdn.net/v/t1.0-9/65052_10152322662885253_1863262124_n.jpg?oh=5875d97cf68d8788b2346422eac380d2&oe=5AF9CC59	https://i.imgur.com/5FtHZq7.jpg	https://i.imgur.com/Maijay8.jpg	https://i.imgur.com/dXVq6JI.jpg	 https://scontent-ort2-1.xx.fbcdn.net/v/t1.0-9/12650804_10156539348370253_729069035649756229_n.jpg?oh=15b6d57c5ca6a3ddbc1b39f2718a98be&oe=5AB73264	
Schwenk Wine Cellars	1456 Bills road		Kent	NY	14477		585-682-4629	Mon-Wed. closed; Thur&Fri. 2-5pm; Sat. 12-5; Sun. 12-4	www.schwenkwinecellars.com	https://www.facebook.com/schwenkwine.cellars/		Yes		Yes	Yes			Yes	Winery	Gift Shop & Specialty Products					wine	specialty shops					https://scontent-ort2-1.xx.fbcdn.net/v/t31.0-8/20414061_1235899726520070_1878612926144941836_o.jpg?oh=1fe54188744e6781f0b22bc16e69186f&oe=5AEBAC0D	 https://scontent-ort2-1.xx.fbcdn.net/v/t31.0-8/24273864_1337490633027645_8603798300677322002_o.jpg?oh=e246362fd3fb4add0f1c8c019039e128&oe=5ABAC57D	https://scontent-ort2-1.xx.fbcdn.net/v/t1.0-9/22007945_1282619195181456_5319629816691441765_n.jpg?oh=c9aee7d0c3d42bd63daab5c91ec6a79c&oe=5AFEF5A9	https://scontent-ort2-1.xx.fbcdn.net/v/t31.0-8/19575354_1209782939131749_7057660601306286162_o.jpg?oh=5993e74f758acb9a6ab1436724c23107&oe=5AEC1957	https://scontent-ort2-1.xx.fbcdn.net/v/t1.0-9/15178255_1016772591766119_7228814265829412796_n.jpg?oh=da88fac1020ddca537c7e57b732ec960&oe=5AB3AD6B	 https://scontent-ort2-1.xx.fbcdn.net/v/t31.0-8/15003410_997888376987874_8864783613702269947_o.jpg?oh=1c8ea1ad67c252a230695894aa23e39d&oe=5AEE6C67	https://scontent-ort2-1.xx.fbcdn.net/v/t1.0-9/14440683_959792370797475_7039133602800669338_n.jpg?oh=225f0cbf5c74924a7f1d7973b87d8f20&oe=5AF583DF
The Winery At Marjim Manor	7171 E. Lake Road		Appleton	NY	14008		716-778-7001	Mon.-Sat. 10-6pm; Sun. 12-6	www.marjimmanor.com	https://www.facebook.com/MarjimManor/		Yes		Yes	Yes			Yes	Winery	Gift Shop & Specialty Products	Weddings & Special Events				wine	specialty shops	venue rental				https://scontent-ort2-1.xx.fbcdn.net/v/t31.0-8/21768687_10159337364630084_1549652458542250364_o.jpg?oh=37f159f39bd0cebedb1c2cf5c465b186&oe=5AEEAB03	 https://scontent-ort2-1.xx.fbcdn.net/v/t1.0-9/22310136_10159440578535084_8088794826606139525_n.jpg?oh=774ca050304a368ba2dfd390361772d7&oe=5AB49BF0	 https://scontent-ort2-1.xx.fbcdn.net/v/t31.0-8/1403187_10153573488035084_1710580909_o.jpg?oh=b6073165b3a8ac745f349588c320c962&oe=5AB192AF		 https://scontent-ort2-1.xx.fbcdn.net/v/t31.0-8/243119_10152100638950084_436727362_o.jpg?oh=3062f72646f616fecdee787711c8ec8a&oe=5AB97F16		
Victorianbourg Wine Estate	4402 East Lake Road		Wilson	NY	14172	Niagara	716-751-6576	Sun.-Fri. 12-5pm; Sat. 11-6	http://www.victorianbourg.com/	https://www.facebook.com/VictorianbourgWineEstate/		Yes		Yes	Yes			Yes	Winery	Gift Shop & Specialty Products	Weddings & Special Events				wine	specialty shops	venue rental				https://scontent-ort2-1.xx.fbcdn.net/v/t31.0-8/14352470_1060937484002533_6259745945723906236_o.jpg?oh=68e1db92480aee6d72c62eb15143e66f&oe=5AF4D3C4	https://scontent-ort2-1.xx.fbcdn.net/v/t31.0-8/15326276_1138684902894457_7930258478928296159_o.jpg?oh=9da2138bcd5d8795b2bb177d4212bb9f&oe=5AB90963	https://scontent-ort2-1.xx.fbcdn.net/v/t31.0-8/15167617_1124841494278798_8435001750559832124_o.jpg?oh=458fee8dbf625f98117325fc93042a5a&oe=5AF2173D				
Live Edge Brewing Company	2100 Coomer Rd		Burt 	NY	14028	Niagara	716-512-5414 	Closed Tues.&Wed; Sun, Mon, Thur. 11-8pm; Fri. and Sat. 11am-10pm	www.liveedgebrewery.com	https://www.facebook.com/LiveEdgeBrews/		Yes		Yes	Yes			Yes	Brewery/Cidery	Restaurants	Weddings & Special Events				beer	wine	prepared food	desserts	venue rental	hard cider	https://scontent-ort2-1.xx.fbcdn.net/v/t31.0-8/21014108_1539626209432733_4179882945520945654_o.jpg?oh=dcd4c787611518dee701a9aa67ad2ac7&oe=5AE7B642	 https://scontent-ort2-1.xx.fbcdn.net/v/t1.0-9/20914708_1539629762765711_8415646127094740985_n.jpg?oh=d96f81f2b13f1afcfcba3dc7bababe38&oe=5AF5FFA1	 https://scontent-ort2-1.xx.fbcdn.net/v/t31.0-8/22218411_1580681991993821_1038071297344018961_o.jpg?oh=68469b97e69363cd8e457b99a9af9af7&oe=5AEA70E4				
Cambria Corn Maze	5274 Lockport Junction Rd.		Lockport	NY	14094	Niagara	716-589-0626	Seasonal	www.cambriacornmaze.com						Yes			Yes	Seasonal Activities						corn maze						https://scontent-ort2-1.xx.fbcdn.net/v/t31.0-8/1267197_676197475742417_1408482539_o.jpg?oh=fb000fc5fdd619b15970c0c5ae7203f1&oe=5AEB32AA	https://scontent-ort2-1.xx.fbcdn.net/v/t1.0-9/10414629_900637219965107_6730551265561175364_n.jpg?oh=382ff44f6e1bc71e2f42752ef3fe217b&oe=5AB499CB	 https://scontent-ort2-1.xx.fbcdn.net/v/t31.0-8/10608781_885657348129761_4458982422589780844_o.jpg?oh=48e529f45696bd98c5be388843aa48a3&oe=5ABA46BC	 https://scontent-ort2-1.xx.fbcdn.net/v/t1.0-9/1391771_699405086754989_1488838315_n.jpg?oh=8a897a44d301631054fc54be0098ef09&oe=5AF439BD			
Hoover's Dairy	6045 Ward Road		Sanborn	NY	14132	Niagara	716-731-3830	Daily 11am-8pm; Sat. 8-8		https://www.facebook.com/Hoovers-Restaurant-1561547140797530/				Yes	Yes			Yes	Restaurants	Dairy Products					ice cream	prepared food	desserts				https://scontent-ort2-1.xx.fbcdn.net/v/t1.0-9/11008055_1576852149267029_3147177588733995941_n.jpg?oh=6de4e58cbbd0ecf0ac441a7c4a761d6a&oe=5AE8DDD4						
Clarence Hollow Farmer's Market	10717 Main Street		Clarence	NY	14031	Erie		Saturdays June-Oct. 8am-1pm	www.clarencefarmersmarket.com	https://www.facebook.com/ClarenceHollowFM/?ref=br_rs		Yes	Yes		Yes				Farmers Market						specialty fruits	specialty vegetables	apples	strawberries	tomatoes	pumpkins/gourds	https://scontent-lga3-1.xx.fbcdn.net/v/t1.0-9/429403_10150682378339904_307875772_n.jpg?oh=e1c49be7be775dc1bd4ae1210fc35ffb&oe=5A97392C	 https://scontent-ort2-1.xx.fbcdn.net/v/t31.0-8/18891693_10155370526819904_847487215424282478_o.jpg?oh=4d996492f53f338ce3a66f31fb7463c9&oe=5AFCD5C1	https://scontent-ort2-1.xx.fbcdn.net/v/t31.0-8/18836877_10155370527769904_7619562063712064090_o.jpg?oh=3194d7813b5f7d861d1d3334d4dd990d&oe=5AEE5900	 https://scontent-ort2-1.xx.fbcdn.net/v/t31.0-8/18766818_10155370520079904_2555302290626053516_o.jpg?oh=9f1b66c7e4b2c50a6c284fb3b8950a8c&oe=5AEFA154	 https://scontent-ort2-1.xx.fbcdn.net/v/t31.0-8/18768366_10155370514189904_502142352533084285_o.jpg?oh=754de99c98eebd3f760082dbd421cec9&oe=5AB84BF9	 https://scontent-ort2-1.xx.fbcdn.net/v/t31.0-8/18920779_10155370513394904_6228202061952198015_o.jpg?oh=dbaf4d3a7b8d736f61cfc2a50135c2c2&oe=5AF79E44	https://scontent-ort2-1.xx.fbcdn.net/v/t31.0-8/18891482_10155370512394904_6068803524834844255_o.jpg?oh=dd97c16198e30779e961b4398328c4e4&oe=5AF307D9
Dispenza's Meat Market	3130 Ridge Road		Ransomville	NY	14131	Niagara	716-791-3400	Closed Mon.&Tue; Wed. 8-5; Thurs. 8-6; Friday 8-5; Sat. 8-4; Sun. 10-2	www.dispenzas.com	https://www.facebook.com/DispenzasMeatMarket/	Yes	No			Yes			Yes	Meat Market	CSA					beef	poultry	pork	specialty meats	eggs		https://scontent-ort2-1.xx.fbcdn.net/v/t1.0-9/1901736_259199807589822_1500827062_n.jpg?oh=821797bb03f7aa831ddafe82b8d5c23a&oe=5AF670BF	 https://scontent-ort2-1.xx.fbcdn.net/v/t31.0-8/25438792_906845949491868_1617760922491167874_o.jpg?oh=59fa89cc8b292b9242de5584ddb40985&oe=5AB43A61	 https://scontent-ort2-1.xx.fbcdn.net/v/t31.0-8/23509232_888286094681187_3154758373585884378_o.jpg?oh=bc3a6ad9a2187b732b13c39299792cc3&oe=5AF686C0	 https://scontent-ort2-1.xx.fbcdn.net/v/t1.0-9/1476163_230528890456914_46771403_n.jpg?oh=73bd00e339572d8be305276ca6b62bdb&oe=5ABA5213	 https://scontent-ort2-1.xx.fbcdn.net/v/t1.0-9/1380292_215193578657112_317260248_n.jpg?oh=c1c3ec7ef06bdd1ccee83aec50d05618&oe=5AE88B7B	https://scontent-ort2-1.xx.fbcdn.net/v/t31.0-8/21368808_858438327665964_3042557849824128681_o.jpg?oh=1e20815d380e2d2a87c6e76f70e0352c&oe=5AEF3E22	
Teacup Farm	2278 Johnson Creek Rd		Barker	NY	14012	Niagara	716-807-2963	Please call	www.teacupfarm.com		Yes	No			Yes			Yes	Dairy Products						milk	cheese	yogurt	eggs	skincare/home products		http://www.teacupfarm.com/wp-content/uploads/2015/04/1798520_10152741189515750_4914808379081649510_n-1.jpg	https://i.imgur.com/buw7mig.jpg					
Woodcock Brothers Brewery	638 Lake Street		Wilson	NY	14172	Niagara	716-333-4000	Closed Mon; Tues-Thur. 12-10pm; Fri. & Sat. 12-11pm; Sun. 12-8pm	http://woodcockbrothersbrewery1.joggerspark.info/	https://www.facebook.com/woodcockbrothers/?rf=555472154466288		Yes			Yes			Yes	Brewery/Cidery	Restaurants					beer	prepared food	hard cider	wine	music/entertainment		https://scontent-ort2-1.xx.fbcdn.net/v/t31.0-8/24831355_1718240161539883_3869732030256128494_o.jpg?oh=819ca19588b2900584f9bc87d6c0491f&oe=5AB70845			https://scontent-ort2-1.xx.fbcdn.net/v/t31.0-8/25587963_1731105916919974_2036433171771667062_o.jpg?oh=93ba8c073ac7678f9296a6e4855377d0&oe=5AEE1F72			 https://scontent-ort2-1.xx.fbcdn.net/v/t31.0-8/25351903_1724974047533161_7852669304437847961_o.jpg?oh=84b46cb87c552d0be324853e64291233&oe=5AEC658C
Hall's Apple Farm	6100 Ruhlmann Rd		Lockport	NY	14094	Niagara	 (716) 434-0838	Open daily 9am-5:30pm; closed Sundays	www.hallsapplefarm.com	https://www.facebook.com/Hall-Apple-Farm-193232269045/		Yes		Yes	Yes			Yes	Baked Goods	Gift Shop & Specialty Products	Farm Market				apples	desserts	cider	specialty shops	honey		https://scontent-ort2-1.xx.fbcdn.net/v/t31.0-8/340651_10151414253684046_146436719_o.jpg?oh=ef92f0836a0b1a8acde00dd73f5eee3a&oe=5AF6EB7C	http://www.hallsapplefarm.com/attachments/Image/P1010039.JPG	https://scontent-lga3-1.xx.fbcdn.net/v/t31.0-8/963939_10151959543699046_1218338082_o.jpg?oh=ed8d603518026507b3dbb07b8477e169&oe=5AA8D589		 https://scontent-ort2-1.xx.fbcdn.net/v/t1.0-9/1914323_193236019045_5199227_n.jpg?oh=e6cdb3785815bde1964ea47697665764&oe=5AFD162A	https://scontent-ort2-1.xx.fbcdn.net/v/t31.0-8/12719372_10154549554134046_4612071510664155602_o.jpg?oh=c9572aa66a35ddb3890d72ce8c64650d&oe=5AED10FB	https://scontent-ort2-1.xx.fbcdn.net/v/t31.0-8/278539_10151633708584046_1176934337_o.jpg?oh=cf3218c84771269faf4fb074fac55d3c&oe=5AF55E9C
Burley Berries & Blooms	6335 Route 20A E.		Warsaw	NY	14569		 (585) 308-0674	Seasonal	http://burleyberries.wixsite.com/burley-berries	https://www.facebook.com/BurleyBerries/		Yes			Yes			Yes	U-Pick						strawberries	flowers					https://scontent-ort2-1.xx.fbcdn.net/v/t1.0-9/15241266_878373505632762_3264778749534352556_n.jpg?oh=3e7d8818ff23056dc1f50e287b914f73&oe=5AE776BD	https://scontent-ort2-1.xx.fbcdn.net/v/t1.0-9/21231052_1056926854444092_7644873963174915158_n.jpg?oh=c477e6201d7e86aa6b6319d5cfa4a85c&oe=5AF46658	 https://scontent-ort2-1.xx.fbcdn.net/v/t1.0-9/13775386_802523383217775_8341856459613736405_n.jpg?oh=134ea0e9ea21e54b9b76dc4761d1fd8e&oe=5AFD21F6	 https://scontent-ort2-1.xx.fbcdn.net/v/t1.0-9/11008593_627471170722998_3521053305690330207_n.jpg?oh=f4b5a2fefc39ff8ab5cf4bc38b12b135&oe=5AF493F8	 https://scontent-ort2-1.xx.fbcdn.net/v/t31.0-8/1039936_301576716645780_1861749352_o.jpg?oh=0dbad3c51a13abdf6562a45f926df616&oe=5AEA779E	 https://scontent-ort2-1.xx.fbcdn.net/v/t1.0-9/22045627_1073475626122548_4184165912694975980_n.jpg?oh=8afd33adf88c84137c1ec7951fbfc0ac&oe=5AF46F50	 https://scontent-ort2-1.xx.fbcdn.net/v/t1.0-9/24862593_1115444148592362_5175879320245576758_n.jpg?oh=d7d4e6dd33460de337fb7a963fcbc48d&oe=5AF691AE
Sunflowers of Sanborn	Corner of Route 31 and Baer Road		Sanborn	NY	14132	Niagara	(716) 731-9373	Seasonal	N/A	https://www.facebook.com/Sunflowers-Of-Sanborn-NY-292603171217990/					Yes			Yes	Seasonal Activities						flowers						https://scontent-lga3-1.xx.fbcdn.net/v/t1.0-9/21230905_292612411217066_1422135073645472839_n.jpg?oh=85adade7f35635dc9e2825bf1e4973ca&oe=5AA8E26C	https://scontent-lga3-1.xx.fbcdn.net/v/t1.0-9/21106433_292610074550633_6306056542323539454_n.jpg?oh=e2f5a4c84b81e4907f3aa26858b78c60&oe=5A672FB9					
Anastasia Farms	3061 Smith Road		Canandaigua	NY	14424		(585) 233-6041	Please call	N/A	https://www.facebook.com/AnastasiaFarmsHopewell/	Yes		Yes		Yes				Meat Market						poultry		eggs				https://scontent-ort2-1.xx.fbcdn.net/v/t1.0-9/1558463_448319678628992_1310026142_n.jpg?oh=474143adcef9893fb52c0ae9cd34a2df&oe=5AED217A	https://scontent-ort2-1.xx.fbcdn.net/v/t1.0-9/1558463_448319678628992_1310026142_n.jpg?oh=474143adcef9893fb52c0ae9cd34a2df&oe=5AED217A	 https://scontent-ort2-1.xx.fbcdn.net/v/t1.0-9/1000954_448319915295635_1668195682_n.jpg?oh=9071adb7cf827e2b4d51d11579907bb8&oe=5ABCDC95				
Autumn's Gate Horseback Riding	1956 Balmer Rd.		Ransomville	NY	14131	Niagara	(716) 791-5051	Mon-Sat. 8:30-7pm; Sundays 12pm-7pm	http://www.autumnsgate.com/	https://www.facebook.com/AutumnsGate/					Yes			Yes	Weddings & Special Events						venue rental						https://scontent-lga3-1.xx.fbcdn.net/v/t1.0-9/13015328_705574619545414_7094430110744786225_n.png?oh=5e6eb8b7d8154bcf9c1c8c15b71a9602&oe=5AAC15CA	 https://scontent-ort2-1.xx.fbcdn.net/v/t31.0-8/1537875_411906685578877_876595356_o.jpg?oh=3caaab853c2afc17aa9059f7f9ca824c&oe=5ABC8F8B					
Gallagher Wedding Barn	255 North Gravel Road		Medina	NY	14103	Orleans	585-590-2342	Please call	http://www.thegallagherbarn.com/	https://www.facebook.com/Thegallaghe/					Yes			Yes	Weddings & Special Events						venue rental						https://static1.squarespace.com/static/55e50ec9e4b0447713c24883/55fcb738e4b0347ac88dcb4b/5780e6712e69cfb0b3fd2d40/1468065919624/13576618_1060009937386180_4956687975582388997_o.jpg						
Promised Land CSA	2112 County Line Rd 		Alden	NY	14004		(585) 599-3462	Please call	http://promisedlandcsa.com/	https://www.facebook.com/OlesFamilyFarm/		Yes			Yes			Yes	CSA	Meat Market					eggs	beef	poultry				https://scontent-ort2-1.xx.fbcdn.net/v/t31.0-8/19693547_1455337211168132_6817694565923942633_o.jpg?oh=68283e8386a2738f4324fec13d85c93e&oe=5ABA6589	 https://scontent-ort2-1.xx.fbcdn.net/v/t1.0-9/1545677_714935111875016_2929129006592225463_n.jpg?oh=72f69509374117eb5b93b37cdcb28391&oe=5AE913ED	https://scontent-ort2-1.xx.fbcdn.net/v/t1.0-9/20431207_1475393755829144_8426186520086740480_n.jpg?oh=e08ce2d21b8bb6ffe047d90725804184&oe=5AE7D58B	 https://scontent-ort2-1.xx.fbcdn.net/v/t1.0-9/10568974_729113757123818_6055474492414603459_n.jpg?oh=781f7e80d84e52a1c810e55a15254d5f&oe=5AEC9910	https://scontent-ort2-1.xx.fbcdn.net/v/t1.0-9/10472864_729113770457150_2181147239668048551_n.jpg?oh=a98a39af03ab2d2e82eaf470a8cc63ca&oe=5ABB1260	https://scontent-ort2-1.xx.fbcdn.net/v/t1.0-9/11046246_891491450886047_6881945987121176579_n.jpg?oh=7f85ef81892fb100ba26457f8d262ab5&oe=5AB866B0	https://scontent-ort2-1.xx.fbcdn.net/v/t1.0-9/1607130_891491490886043_2430631038819118629_n.jpg?oh=4e5e659086aa30d8554dbef10954a40b&oe=5AB177A8
Murphy Orchards	2402 McClew Road		Burt	NY	14028	Niagara	716-778-7926	May 1 - October 31, open 8:30am to 6:30pm; from November 1 to April 30, 9:00am-4:00pm.	https://www.murphyorchards.com/	https://www.facebook.com/MurphyOrchards/		Yes			Yes			Yes	Gift Shop & Specialty Products						specialty shops	apples					https://scontent-ort2-1.xx.fbcdn.net/v/t31.0-8/10623470_10152250539546901_3613097302219563242_o.jpg?oh=a6178e7aeeeca16c877c244798e619af&oe=5AF2E01C	https://scontent-ort2-1.xx.fbcdn.net/v/t1.0-9/12308280_10153099798561901_5646338843337668132_n.jpg?oh=978cbea3b9619b757760c89d9a4d72d9&oe=5ABA9922	https://scontent-ort2-1.xx.fbcdn.net/v/t1.0-9/11737847_10152838318866901_4113588255159755438_n.jpg?oh=60626a7a8dbebd08f2ea52e3e0467bdd&oe=5AEB9E35	https://scontent-ort2-1.xx.fbcdn.net/v/t1.0-9/12109111_10153019295246901_5864543616844938717_n.jpg?oh=df14c851679929f27fb4ff2111b7f1d2&oe=5AF487B4	 https://scontent-ort2-1.xx.fbcdn.net/v/t1.0-9/12019786_10152994442081901_3693219930004344877_n.jpg?oh=c419aca3ac538b62bea8185edc782d53&oe=5AE7CF23	 https://scontent-ort2-1.xx.fbcdn.net/v/t1.0-9/11705347_10152853987641901_683406501904847432_n.jpg?oh=a3c6547471fbc3abc9f0bf62c445e889&oe=5AF6FE8F	https://scontent-ort2-1.xx.fbcdn.net/v/t1.0-9/11537717_10152794344496901_7112337749371879759_n.jpg?oh=2515e1314aaf1d375799a13b76be6cf2&oe=5AF355F6
Sanger Farm & Bakery	852 Lockport Street		Youngstown	NY	14174		716-745-7297	M-F 9am-7pm; Sat. & Sun. 10am-7pm	https://www.sangerfarmsandbakery.com/	https://www.facebook.com/sangerfarms/		Yes			Yes			Yes	Baked Goods	Farm Market					prepared food	strawberries	bakery				https://scontent-ort2-1.xx.fbcdn.net/v/t31.0-8/1669696_582367708523123_393772347_o.jpg?oh=77bae1b9eca8935c802ffae765d428a1&oe=5AB57A50	 https://scontent-ort2-1.xx.fbcdn.net/v/t1.0-9/988250_451481141611781_1190619050_n.jpg?oh=e51ec26a5672deb8567046d73b39a2fb&oe=5AF8B2A3	 https://scontent-ort2-1.xx.fbcdn.net/v/t1.0-9/13900069_1086562451436977_7652467947835763042_n.jpg?oh=0e6a4af8e6902103575222889209db31&oe=5AF99BCA	https://scontent-ort2-1.xx.fbcdn.net/v/t1.0-9/17342518_1289402194486334_8201116388303305712_n.jpg?oh=b286968de05692a2ae9779d2a6c045e3&oe=5AF58499	https://scontent-ort2-1.xx.fbcdn.net/v/t1.0-9/972257_460378517388710_1401549078_n.jpg?oh=0db54d8e24b9a44c9f68091a8f4c0ab2&oe=5AE87DE2	https://scontent-ort2-1.xx.fbcdn.net/v/t1.0-9/20264919_1413362392090313_1491269501768284478_n.jpg?oh=98ea6d8a3b4ccc8b8a9fc3bc9ec3fcaf&oe=5AF279F3	 https://scontent-ort2-1.xx.fbcdn.net/v/t1.0-9/19601086_1393657617394124_7241722498470422419_n.jpg?oh=709fc416099aefff5bef623be2fba533&oe=5AB7E907
Wyatt's Coop & JAS Farm	4289 Burch Road		Ransomville	NY	14131		(716) 438-8305	Please call		https://www.facebook.com/WyattsCoop/	Yes				Yes			Yes	Meat Market						beef	lamb	poultry				https://scontent-ort2-1.xx.fbcdn.net/v/t31.0-8/10900186_774083155978449_2330609960399556702_o.jpg?oh=022d5e4fcc8266d32c775e11b78b3f61&oe=5AF1ACB5	https://scontent-ort2-1.xx.fbcdn.net/v/t1.0-9/12191487_914124348640995_3313481434789751824_n.jpg?oh=3da507fe13fd5c1820026fa9b49fa901&oe=5AEA03B4	https://scontent-ort2-1.xx.fbcdn.net/v/t1.0-9/1897916_853482738038490_1294725457988443465_n.jpg?oh=6720ba5cc71a76a0d6b321b9b5721057&oe=5AB0B1B7	 https://scontent-ort2-1.xx.fbcdn.net/v/t1.0-9/11102641_817856094934488_2750736503877978460_n.jpg?oh=fdfabccfe50eec5a23f8373a9ee227d7&oe=5AF3E00B			
Seabert Farms & Greenhouse	3682 Ridge Road		Lockport	NY	14094	Niagara	(716) 946-4866	Open seasonally May 1 - Dec. 1	N/A	https://www.facebook.com/seabertfarms/		Yes			Yes			Yes	Farm Market	Nursery/Plants					flowers	specialty vegetables 	specialty fruits				https://scontent-lga3-1.xx.fbcdn.net/v/t1.0-1/p200x200/11129920_1597214140493137_7632411204737430589_n.jpg?oh=8c8f62bffe3d788e8877cfd648c16e59&oe=5AA2FCC7	https://scontent-lga3-1.xx.fbcdn.net/v/t1.0-9/13423851_1736107923270424_8350635507684561198_n.jpg?oh=4bab04de7b5cff6ad9d5b1e115b28c6f&oe=5A9124B4	https://scontent-lga3-1.xx.fbcdn.net/v/t1.0-9/14039933_1761394747408408_7807944057107196250_n.jpg?oh=6f428f066d20e1c470b710124de18589&oe=5AA9A80E				
Three Sisters Garlic	4560 Baer Road		Ransomville	NY	14131	Niagara	(716) 791-7255	Please call	website does not work	https://www.facebook.com/LuvGarlic/		Yes			Yes			Yes	Farm Market						garlic						https://scontent-ort2-1.xx.fbcdn.net/v/t31.0-8/21949937_481593355538376_4220860067843787165_o.jpg?oh=93da187bf556eaba6c626ce46674079e&oe=5AF8385D	 https://scontent-ort2-1.xx.fbcdn.net/v/t1.0-9/21761910_481594228871622_377190174520214617_n.jpg?oh=7265caf79e01c8c5ad4a36c8372469af&oe=5AFDB8BB	 https://scontent-ort2-1.xx.fbcdn.net/v/t31.0-8/21994226_481595925538119_8235571998268156114_o.jpg?oh=8614363f7f3c1396713381160b4eb5a6&oe=5AF037B3				
Summertime Blooms	2901 Dickersonville Rd		Ransomville	NY	14131	Niagara	 (716) 791-3369	Please call	www.summertimeblooms.com	https://www.facebook.com/STBlooms/					Yes			Yes	Road-Side Stand						flowers						https://scontent-ort2-1.xx.fbcdn.net/v/t1.0-9/14100344_1193667930677099_9213886986563458306_n.jpg?oh=79c839dbf44b7137feaaeffebca706d2&oe=5AF1D63C	 https://scontent-ort2-1.xx.fbcdn.net/v/t1.0-9/21740513_1596800530363835_799061059188933750_n.jpg?oh=cd2b54d890938a43c08342cf1db2755f&oe=5AF464D2	 https://scontent-ort2-1.xx.fbcdn.net/v/t31.0-8/20369194_1553451531365402_315531152861666128_o.jpg?oh=980895bb609b695216f9850f7df2910d&oe=5AF80B62	 https://scontent-ort2-1.xx.fbcdn.net/v/t31.0-8/15799844_1326964140680810_41578680284497264_o.jpg?oh=f49080f4520b670326ccec015d8edd64&oe=5AFBDAD6	 https://scontent-ort2-1.xx.fbcdn.net/v/t1.0-9/15135812_1282875545089670_7451776502900735177_n.jpg?oh=bd2ac75e4c681792de8f7ded68d1841f&oe=5AB56780	 https://scontent-ort2-1.xx.fbcdn.net/v/t1.0-9/13435397_1149968971713662_5812242177542379662_n.jpg?oh=c5bbb8db436607828285b8a43cba1081&oe=5AB78704	https://scontent-ort2-1.xx.fbcdn.net/v/t31.0-8/13246431_1134871619890064_8162759277188672580_o.jpg?oh=b1d7ee58022689cab3b267610d46122e&oe=5AE9799B
Willow Creek Farm	10270 Rapids Road		Clarence Center	NY	14032	Erie	(716) 807-5586	Please call	www.willowcreekfamilyfarm.com						Yes			Yes							Horse boarding	Horse riding	hay				http://willowcreekfamilyfarm.com/yahoo_site_admin/assets/images/WCF_sign.225155931_logo.jpg	http://www.willowcreekfamilyfarm.com/yahoo_site_admin/assets/images/WCF_three_horses.223160515_std.jpg					
The Great Pumpkin Farm	11199 Main Street		Clarence	NY	14031	Erie	(716) 759-8483	Seasonal	www.greatpumpkinfarm.com	https://www.facebook.com/GreatPumpkinFarm/				Yes	Yes			Yes	Seasonal Activities	Baked Goods	Gift Shop & Specialty Products	U-Pick			pumpkins/gourds	prepared food	venue rental	specialty shops			https://scontent-ort2-1.xx.fbcdn.net/v/t31.0-8/322783_10151187703402855_604081192_o.jpg?oh=1d727b473b1b4488440b4decab4efa1a&oe=5AEEFD75	 https://scontent-ort2-1.xx.fbcdn.net/v/t31.0-8/56672_10151216398552855_324008366_o.jpg?oh=1ff647e1ee8e93c0b90f3dc80b2306ec&oe=5AF34AAC	 https://scontent-ort2-1.xx.fbcdn.net/v/t31.0-8/615547_10151175054682855_778670022_o.jpg?oh=569e9acb4dd1b49440907e18abc89baa&oe=5AECB76B	 https://scontent-ort2-1.xx.fbcdn.net/v/t31.0-8/53348_10151221009622855_913726441_o.jpg?oh=a5da121b93d4535427ba619c5611ea18&oe=5AB62D3E	https://scontent-ort2-1.xx.fbcdn.net/v/t31.0-8/175783_10151209950732855_2014378569_o.jpg?oh=43ec5c257e7bd36927423eab4064ec18&oe=5AE5F541	https://scontent-ort2-1.xx.fbcdn.net/v/t31.0-8/470740_10151194538217855_1194486554_o.jpg?oh=49917d857feb4ca812b62892aa34e692&oe=5AE738EF	
Roberts Farm Market	11170 Maple Ridge Road (Rt 31)		Medina	NY	14103	Orleans	585-798-4247	See website for seasonal hours	www.robertsfarmmarket.com	https://www.facebook.com/RobertsFarmMarketMedina/?fref=nf		Yes		Yes	Yes			Yes	Farm Market	U-Pick	Gift Shop & Specialty Products	Christmas Tree Farm			apples	specialty fruits	pumpkins/gourds	cider	specialty shops	desserts	http://www.robertsfarmmarket.com/images-roberts-farm-market/roberts-farm-market-medina-ny.jpg	https://scontent-ort2-1.xx.fbcdn.net/v/t31.0-8/20121478_794812984026360_6680030215116199061_o.jpg?oh=343bc243abd5ca9f5136da125994e6f1&oe=5AB425E3	https://scontent-ort2-1.xx.fbcdn.net/v/t31.0-8/20229734_794812310693094_4958384726019692316_o.jpg?oh=3c44989f23e1cb4d8364f1ee155f8003&oe=5AFCE47D	 https://scontent-ort2-1.xx.fbcdn.net/v/t31.0-8/11168152_456434361197559_6366851004751316099_o.jpg?oh=21733679aadf5a099ff6aa7ab55fd509&oe=5AF0BC47			
Roberts Christmas Tree Farm	4263 Salt Works Rd		Medina	NY	14103	Orleans	(585) 798-3450	Weekends only, month of December	www.robertsfarmmarket.com						Yes			Yes	Christmas Tree Farm						christmas trees	specialty shops					https://scontent-ort2-1.xx.fbcdn.net/v/t31.0-8/15252579_1259043864116653_7375410933488006163_o.jpg?oh=40c2bcf00b514506ce2ca87d4fc13638&oe=5AF4DE77	 https://scontent-ort2-1.xx.fbcdn.net/v/t1.0-9/12295238_1007588869262155_7229181444289825306_n.jpg?oh=a67561354419f1a7b66f8fc5c280738b&oe=5AFF221F	 https://scontent-ort2-1.xx.fbcdn.net/v/t1.0-9/15136023_1256975250990181_7257368469902447389_n.jpg?oh=e4abe942246b28b32034e47387162af1&oe=5AECAFEC	 https://scontent-ort2-1.xx.fbcdn.net/v/t1.0-9/14732354_1250780811609625_1006943324574930388_n.jpg?oh=c4dba94c4ffed57f14334e902e424dc9&oe=5AFC5EFB			
Crossen Christmas Tree Farm	1198 Judge Road		Basom	NY	14013		(585) 813-8700	Please call / seasonal	N/A	https://www.facebook.com/crossentrees/					Yes			Yes	Christmas Tree Farm	Gift Shop & Specialty Products					christmas trees	specialty shops					https://scontent-ort2-1.xx.fbcdn.net/v/t31.0-8/1075487_534886653246395_1727172085_o.jpg?oh=ae3470c946911fb1f32643d29de27822&oe=5AFBA2CF	 https://scontent-ort2-1.xx.fbcdn.net/v/t31.0-8/1072345_534887953246265_1682489611_o.jpg?oh=4dd2b412e6e3298e5612c2f49760fd42&oe=5ABBF812					
Johnston's Greenhouse	8638 Ernest Road		Gasport	NY	14067	Niagara	716-735-9160	Seasonal; open May & June	N/A						Yes			Yes	Nursery/Plants						nursery plants	flowers											
Baker Farm Market & U-pick	2100 Youngstown Lockport Road		Ransomville	NY	14131	Niagara	(716) 791-3440	Seasonally, 10am-6pm m-f; 10am-5pm Sat. & Sun. 	N/A	https://www.facebook.com/Baker-Farm-Market-U-Pick-127780083907144/		Yes			Yes			Yes	Farm Market	U-Pick					apples	pumpkins/gourds	hay rides		cider		https://scontent-ort2-1.xx.fbcdn.net/v/t1.0-9/14725705_1335648966453577_6701494039030658876_n.jpg?oh=49d8a96ce6efe45b8a93814554a208f0&oe=5ABA8146	 https://scontent-ort2-1.xx.fbcdn.net/v/t1.0-9/14650080_1325254014159739_6244617392720644695_n.jpg?oh=e63986a3d3dece199514fa79b135bee1&oe=5AF32933	https://scontent-ort2-1.xx.fbcdn.net/v/t1.0-9/14232631_1299807466704394_870977457615678958_n.jpg?oh=9cc655348f5718ecfad6c7f2aa8f983f&oe=5AB68D22				
The Koller Christmas Tree Farm	792 Mammot Road		Alden	NY	14004		(585) 547-9408	Seasonal	N/A	https://www.facebook.com/KollerTreeFarm/					Yes			Yes	Christmas Tree Farm	Seasonal Activities					christmas trees						https://scontent-lga3-1.xx.fbcdn.net/v/t31.0-8/1961010_390487257771262_6533040551253897875_o.jpg?oh=83ecd0a6b382cca1b15469a87217f50b&oe=5A9B5266						
Stone Hollow Farm & Bakery	3807 Stone Road		Middleport	NY	14105		716-735-5094	Closed Sun.-Wed; Thur, Fri, Sat. 11am-6pm	http://www.stonehollowfarmny.com/	https://www.facebook.com/StoneHollowFarm/		Yes			Yes			Yes	Baked Goods	Weddings & Special Events	Gift Shop & Specialty Products				bread	bakery	desserts	venue rental			https://scontent-ort2-1.xx.fbcdn.net/v/t1.0-9/22549725_1699120013455772_2849209979061111483_n.jpg?oh=da109975efa713eb4d9298aa29ad5289&oe=5AB71896	 https://scontent-ort2-1.xx.fbcdn.net/v/t1.0-9/22540072_1699119826789124_5529507376698954146_n.jpg?oh=e00851cf09a16566fb0c84f5a4bc7a5e&oe=5AF69F63	 https://scontent-ort2-1.xx.fbcdn.net/v/t1.0-9/20729323_1631206223580485_310503601499589271_n.jpg?oh=a9f503241f2d03456cebc7805d768111&oe=5AE94878	 https://scontent-ort2-1.xx.fbcdn.net/v/t1.0-9/19437224_1580001502034291_5832622088669065584_n.jpg?oh=9984931b470e329a0681a9e44680abb0&oe=5AB31174			
Rose Gold Honey Farm	14523 East Lee Rd		Albion	NY	14411	Orleans	(585) 205-1054	M-Sat. 9am-7pm, Sun. 9-3		https://www.facebook.com/Rosegoldhoneyfarm/		Yes			Yes			Yes	Maple & Honey						honey						https://scontent-ort2-1.xx.fbcdn.net/v/t1.0-9/11987128_1474035756257193_6909521645025702808_n.jpg?oh=c1511ee9a49313f2c664df5433ce995e&oe=5AF2C943	https://scontent-lga3-1.xx.fbcdn.net/v/t1.0-9/13906890_1649586465368787_5856758736570470943_n.jpg?oh=516e355ace420fb932af1126e3affaed&oe=5AAF5B5C	 https://scontent-ort2-1.xx.fbcdn.net/v/t1.0-9/13934585_1650601731933927_4633300172880384870_n.jpg?oh=fda81fe7a212729889280cc89042544f&oe=5ABBA098				
Canal Village Farmers Market	127 West Center Street	In the heart of center downtown Medina	Medina	NY	14103	Orleans	(716) 628-3078	Saturdays June-Oct. 9am-1pm		https://www.facebook.com/Canal-Village-Farmers-Market-1628793180740256/		Yes			Yes				Farmers Market						specialty fruits	specialty vegetables	apples	corn	flowers	peaches/apricots	https://scontent-lga3-1.xx.fbcdn.net/v/t1.0-9/19397179_2018356725117231_2758806804306420779_n.jpg?oh=fa3e1ff840b88ea148165b3b346cd6d8&oe=5A96118C	 https://scontent-ort2-1.xx.fbcdn.net/v/t1.0-9/20800255_2049128302040073_7847459801504237880_n.jpg?oh=85b4771795a3f78435d4aa4375dda135&oe=5AF61DA4					
Smith's Orchard Cider Mill	4960 Mapleton Road		Pendleton	NY	14094	Niagara	716 625-4316	Fri, Sat. Sun. 9-5pm	http://www.smithsorchard.com/index.php	https://www.facebook.com/smithscidermill/		Yes			Yes			Yes	Farm Market	Gift Shop & Specialty Products	U-Pick				cider	apples	specialty shops				https://scontent-ort2-1.xx.fbcdn.net/v/t31.0-8/10704370_896838296997541_1653660070631644696_o.jpg?oh=04be5238fc91cf723380fcf337f74657&oe=5AFD5001						
Cherry Bank Farm Cider Mill	5140 Townline Road		Sanborn	NY	14132	Niagara	(716) 731-5749	Open daily 9am-7pm	N/A	https://www.facebook.com/CherryBankCiderMill/		Yes			Yes			Yes	Farm Market	Baked Goods	Gift Shop & Specialty Products				cider	bakery	honey	desserts	specialty shops		https://scontent-lga3-1.xx.fbcdn.net/v/t31.0-8/12068702_911004012268497_4423640363673487396_o.jpg?oh=04137e8b6b9aafaf843cedb867043574&oe=5AA00EF2						
Poppin' Hops Caramel Corn & Kettle Corn	6147 Aiken Road		Pendleton	NY	14094	Niagara	(716) 251-2504	M-F 4pm-9pm; Sat. 10am-10pm; Sun. 10-8pm	N/A	https://www.facebook.com/Poppin-Hops-1925196291048733/		Yes			Yes			Yes	Road-Side Stand						prepared food						https://scontent-lga3-1.xx.fbcdn.net/v/t1.0-9/19990266_1950516975183331_479385610377715519_n.jpg?oh=53ad6dfd104b73756db29ac7a2e438b0&oe=5AA9FD4F						
The Maize - Buffalo Corn Maze	3901 Niagara Falls Blvd. 		North Tonawanda	NY	14120	Niagara	(716) 523-3860	Mon-Thur. 10am-9pm; Fri. & Sat. 10am-11pm; Sun. 10am-9pm seasonal fall hours	https://www.wnymaize.com/	https://www.facebook.com/WNYMaize/					Yes				Seasonal Activities						corn maze						https://scontent-lga3-1.xx.fbcdn.net/v/t1.0-9/14051597_1224015227630174_3704267451646880582_n.jpg?oh=8a4b484a59a72c34bd148e2674c4f622&oe=5A8B9766						
West Shore Brewing Company	10995 Main Street 		Clarence	NY	14031	Erie	 (716) 998-3752	Thur. & Fri. 4-8pm; Sat. 12-8pm	http://www.westshorebrewing.com/	https://www.facebook.com/westshorebrewing/		Yes			No				Brewery/Cidery						beer	prepared food					https://scontent-ort2-1.xx.fbcdn.net/v/t1.0-9/12507364_1659364920968844_6322331566216734653_n.jpg?oh=409dbe7280f0a521335965489679c154&oe=5AE7368B	 https://scontent-ort2-1.xx.fbcdn.net/v/t1.0-9/20498_1614143372157666_2517673283334472823_n.jpg?oh=aef8c77474b03bec752b2ae0a70219cf&oe=5AB8A6B7	https://scontent-ort2-1.xx.fbcdn.net/v/t31.0-8/24799573_1935873973317936_4716887033980996577_o.jpg?oh=322bcd0ac48d7f19d7ac36b1485b1fa6&oe=5AE911BB	 https://scontent-ort2-1.xx.fbcdn.net/v/t31.0-8/19023606_1861974690707865_8616007452321806163_o.jpg?oh=bbf501fc27e6142029f1bca762c499d4&oe=5AE70B4F			
Bye's Popcorn	1667 Lockport Olcott Rd		Olcott	NY	14126	Niagara	(716) 778-8218	Sat. & Sun. 1-8pm	http://www.byespopcorn.net/			Yes		Yes	Yes			Yes	Road-Side Stand						prepared food						http://www.byespopcorn.net/images/thumbs/sd-20160913-022159.jpg?1510536266						
Bowman Farms	11259 Gowanda State Road 		North Collins	NY	14111		716-337-2965	Daily 9am-6pm	http://www.bowmanfarmsinc.com/home.html	https://www.facebook.com/Bowman-Farms-Inc-128592760495039/		Yes			Yes			Yes	Farm Market						corn  	strawberries	tomatoes	specialty vegetables	specialty fruits	pumpkins/gourds	 https://scontent-ort2-1.xx.fbcdn.net/v/t1.0-9/21191994_1571030402917927_3294811695811047134_n.jpg?oh=89f8913ebc0b71a6b2a4579f2de5f6dd&oe=5AE6A75D	https://scontent-ort2-1.xx.fbcdn.net/v/t1.0-9/20729205_1553250704695897_1366997251115878503_n.jpg?oh=0ad17baa9404d18b5fcf075a7bf35fef&oe=5AB17023	https://scontent-ort2-1.xx.fbcdn.net/v/t1.0-9/20767947_1553250641362570_7639846360543777199_n.jpg?oh=1cbab2d8b846aaaf2470bd04c152e3b1&oe=5AFCC421	https://scontent-ort2-1.xx.fbcdn.net/v/t1.0-9/18921765_1487541347933500_7910627470419756569_n.jpg?oh=4b5fccef36bc84d38d492753c78433f8&oe=5AF8A822			
Common Roots Urban Farm	309 Peckham Street		Buffalo	NY	14206	Erie	716.292.9109	Seasonal. Call or check website for hours	http://www.commonrootsurbanfarm.com/	https://www.facebook.com/CommonRootsUrbanFarm/?ref=br_rs		Yes			Yes				CSA						specialty vegetables	specialty fruits	garlic	tomatoes	carrots	greens	https://scontent-ort2-1.xx.fbcdn.net/v/t31.0-8/13502600_867902623314314_5423419085163844073_o.jpg?oh=02bd7cc2fea4ee840bf7b14444b0f77f&oe=5AFF4635	 https://scontent-ort2-1.xx.fbcdn.net/v/t31.0-8/256235_272528176185098_2011908786_o.jpg?oh=0743ba36103352e73efccbec30150080&oe=5AE5AF8B	 https://scontent-ort2-1.xx.fbcdn.net/v/t31.0-8/24837626_1342796342491604_384115443078383043_o.jpg?oh=57abc252e67ba951a75e73af3f19f45e&oe=5AE51ED6	 https://scontent-ort2-1.xx.fbcdn.net/v/t31.0-8/288814_272527902851792_127192804_o.jpg?oh=32e874e41fbf3d99990ce21304d4cc6d&oe=5AEA3B6B	 https://scontent-ort2-1.xx.fbcdn.net/v/t31.0-8/17761135_1107730772664830_6643036851811591157_o.jpg?oh=c422f80cdec239fb47502eb9b726b8fd&oe=5AEBBE3C		
Wheatfield Pumpkin Farm	6920 Nash Road	(North Tonawanda)	Wheatfield	NY	14120	Niagara	7166936407	Sat. & Sun. 12-4 during fall	http://wheatfieldpumpkinfarm.com/index.htm						Yes			Yes	Seasonal Activities	Farm Market	Weddings & Special Events				pumpkins/gourds	prepared food	corn maze	venue rental			https://scontent-ort2-1.xx.fbcdn.net/v/t31.0-8/11921865_939659049406527_3061924592684228247_o.jpg?oh=1a3c76eb4c123bb1f0912272c99f1da5&oe=5AFF0AF0	 https://scontent-ort2-1.xx.fbcdn.net/v/t31.0-8/22256412_1552073468165079_6776255483553278997_o.jpg?oh=c2d14dc323f99050bbcea11d8280fe4c&oe=5ABB2112					
Newfane Methodist Farmer's Market	 2699 Main Street	Newfane United Methodist Church 	Newfane	NY	14108	Niagara		Open June-October, Wed. nights 4:30-7pm	N/A	https://www.facebook.com/Newfane-Methodist-Farmers-Market-1698236687072104/		Yes		Yes	Yes				Farmers Market						specialty vegetables	specialty fruits	music/entertainment	bread	skincare/home products	prepared food	https://scontent-ort2-1.xx.fbcdn.net/v/t1.0-9/20292589_2060897627472673_8572552670788170412_n.jpg?oh=92eb4cf5f3b096273c1080eaa6151800&oe=5AE81FBE	 https://scontent-ort2-1.xx.fbcdn.net/v/t1.0-9/19396777_2038779853017784_1432137404183146475_n.jpg?oh=af046649dc080f7c9e1b51bfac22c702&oe=5AFDB501	https://scontent-ort2-1.xx.fbcdn.net/v/t1.0-9/12003413_1718225288406577_8593647050355479182_n.jpg?oh=09615368a9b481b0334f5d8d2824cf27&oe=5AFD782E				
Spoth's Farm Market	5757 Transit Rd		East Amherst	NY	14051	Erie	 (716) 688-1110	M-F 8:30-7pm; Sat. & Sun. 8:30-6pm	https://spothsfarmmarket.weebly.com/	https://www.facebook.com/SpothsFarmMarket/		Yes			Yes			Yes	Farm Market	Gift Shop & Specialty Products					pumpkins/gourds	specialty vegetables	specialty fruits	christmas trees	flowers	strawberries	https://spothsfarmmarket.weebly.com/uploads/6/7/4/7/6747898/2055645.jpg?294						
LynOaken Farms & Winery	10609 Ridge Rd		Medina	NY			585-798-1060	M-F 10am-5pm, Sat. & Sunday 9am-6pm	http://lynoakenfarms.com/	https://www.facebook.com/LynOakenFarms/		Yes		Yes	Yes			Yes	Winery	Gift Shop & Specialty Products	Farm Market	U-Pick			wine	apples	cider	hard cider	desserts	specialty shops	http://lynoakenfarms.com/wp-content/uploads/ThreeApples23.jpg						
Chateau Buffalo	175 Niagara Frontier Food Terminal		Buffalo	NY			716-704-4671	Friday & Saturday 2pm-7pm	http://www.chateaubuffalo.com/	https://www.facebook.com/chateaubuffalo/		Yes						Yes	Winery	Brewery/Cidery					wine	hard cider					https://scontent-ort2-1.xx.fbcdn.net/v/t1.0-9/23559490_10159519136500133_2368942443148269810_n.jpg?oh=63fa3bfbc02a88ba3f7bcaed47704f3f&oe=5ABA3F41	 https://scontent-ort2-1.xx.fbcdn.net/v/t1.0-9/12107975_10156127219340133_7511013987315596091_n.jpg?oh=7fff3146740d7e00dfd511e8f4cbd66e&oe=5ABA66C7					
Grand Island Farmers Market	2487 Long Road		Grand Island	NY				Monday 4-7pm, May 15th-Oct. 15th 	https://www.grandislandfarmersmarket.com/	https://www.facebook.com/GIFarms/		Yes			Yes			Yes	Farmers Market						specialty vegetables	specialty fruits	apples	greens	squash	corn	https://scontent-ort2-1.xx.fbcdn.net/v/t31.0-8/1277857_231598250327142_646430464_o.jpg?oh=60d8899b525553baa8b88fcb85f3168c&oe=5AB96EF1	https://scontent-ort2-1.xx.fbcdn.net/v/t31.0-8/1272884_231598436993790_1779028380_o.jpg?oh=0ae1f1b64114f30ea581a1bf9d25af0c&oe=5AE7C1B1	 https://scontent-ort2-1.xx.fbcdn.net/v/t31.0-8/1274408_231598416993792_1041511358_o.jpg?oh=ece9ae131f49deb903dcbc7af8638ec2&oe=5AF610FB	https://scontent-ort2-1.xx.fbcdn.net/v/t31.0-8/1274806_231598393660461_1393287567_o.jpg?oh=1fcf1b64c5892b1b8f40b3a95f0e47e2&oe=5AB74807			
Graham Family Farm	5171 Tonawanda Creek Road		Pendleton	NY			716-743-0828	Please Call	http://www.grahamfamilyfarm.com	https://www.facebook.com/grahamfamilyfarm/	Yes	Yes			Yes			Yes	Farm Market	Meat Market					poultry	eggs	beans	beets	corn	pumpkins/gourds	https://scontent-ort2-1.xx.fbcdn.net/v/t1.0-9/10985380_415301068671868_3340742348010138468_n.jpg?oh=e251191405e2d11b0676b21323e0e45c&oe=5AB52B39	https://scontent-ort2-1.xx.fbcdn.net/v/t31.0-8/12973591_490814944453813_6894256237297139530_o.jpg?oh=5f34b9af98e86c5ea660f293f0cc0956&oe=5AE9535D	https://scontent-ort2-1.xx.fbcdn.net/v/t31.0-8/966600_138277093040935_1756977249_o.jpg?oh=a09a2716163c765171a03cd268800738&oe=5AB226E6	 https://scontent-ort2-1.xx.fbcdn.net/v/t31.0-8/1014725_138275106374467_1801650_o.jpg?oh=e4847ccbf1a5596450251a5df10e02f8&oe=5AF106CD	https://scontent-ort2-1.xx.fbcdn.net/v/t31.0-8/966598_137971269738184_188003399_o.jpg?oh=d68dc5e5549a55952ce0f9b5bbdf3240&oe=5AEED499	 https://scontent-ort2-1.xx.fbcdn.net/v/t31.0-8/981375_137785436423434_398206500_o.jpg?oh=e37f44173c85e9b3555af68d0299470f&oe=5AE96580	https://scontent-ort2-1.xx.fbcdn.net/v/t31.0-8/980427_137105929824718_1816785465_o.jpg?oh=d95f67660592720dafa9262b35173547&oe=5ABB403C
Koithan Farm	6760 Shawnee Road		North Tonawanda	NY			716-731-5657	when they run out of apples. Mid September until sometime in November. 10am-6pm	N/A	https://www.facebook.com/Koithan-Farm-220709947984467/		Yes			Yes			Yes	Farm Market						apples	cider	pumpkins/gourds										
Heartland Organics, Inc.	8999 Ridge Road		Gasport	NY			716-984-5475 calls and text messages accepted  for larger orders for pick up	Farm Stand open mid-June through mid-October 8am-8pm	N/A	https://www.facebook.com/HeartlandOrganicsInc/		Yes	Yes		Yes			Yes	Road-Side Stand						zucchini	flowers	herbs	raspberries/blackberries	mushrooms	greens	https://scontent-lga3-1.xx.fbcdn.net/v/t31.0-8/21688310_890003417814771_6572713554486007580_o.jpg?oh=5756166765d1b7f2373d9ee12a16c9d6&oe=5AD7B756						